,MDName,Latitude,Longitude,Address,Full Address,Zip Code
0,McDonald's,34.138018,-117.575358,"6381 Haven Ave, Rancho Cucamonga","['6381, Haven Avenue, Rancho Cucamonga, San Bernardino County, California, 91737, United States']",91737
1,McDonald's,34.1363821,-117.2990005,"718 W Highland Ave, San Bernardino","['718, West Highland Avenue, San Bernardino, San Bernardino County, California, 92405, United States']",92405
2,McDonald's,34.4196596,-117.2862433,"17284 Main St, Hesperia","['17284, Main Street, Hesperia, San Bernardino County, California, 92345, United States']",92345
3,McDonald's,34.8912841,-116.9990195,"1611 E Main St, Barstow","['East Main Street, Barstow, San Bernardino County, California, 92311, United States']",92311
4,McDonald's,34.1386343,-117.4335609,"17017 Sierra Lakes Pkwy, Fontana","['Sierra Lakes Parkway, Fontana, San Bernardino County, California, 92336-5387, United States']",92336-5387
5,McDonald's,34.1354963,-117.2527671,"1575 E Highland Ave, San Bernardino","['1575, East Highland Avenue, Redlands, San Bernardino County, California, 92374, United States']",92374
6,McDonald's,34.5204318,-117.3173024,"14860 la Paz Pl, Victorville","[""McDonald's, 14860, La Paz Place, Victorville, San Bernardino County, California, 92395, United States""]",92395
7,McDonald's,34.4270826,-117.3490705,"14466 Main St Pad G, Hesperia","[""McDonald's, 14466, Main Street, Hesperia, San Bernardino County, California, 92345, United States""]",92345
9,McDonald's,34.1660349,-117.3320451,"4155 University Pkwy, San Bernardino","['4155, University Parkway, University Village, San Bernardino, San Bernardino County, California, 92407, United States']",92407
10,McDonald's,34.1377518,-117.1950237,"4210 Highland Ave, Highland","['Walmart Supercenter, 4210, Highland Avenue, San Bernardino, Highland, San Bernardino County, California, 92346, United States']",92346
11,McDonald's,34.1651761,-117.2811878,"240 E 40th St, San Bernardino","['40th Street, San Bernardino, San Bernardino County, California, 92405, United States']",92405
12,McDonald's,34.4716011,-117.24416,"19200 Bear Valley Rd, Apple Valley","['19200, Bear Valley Road, Apple Valley, San Bernardino County, California, 92308, United States']",92308
13,McDonald's,34.471096,-117.3433,"12146 Mariposa Rd, Victorville","['12146, Mariposa Road, Victorville, San Bernardino County, California, 92395, United States']",92395
14,McDonald's,34.5070053,-117.3462702,"14526 Palmdale Rd, Victorville","[""McDonald's, 14526, Palmdale Road, Victorville, San Bernardino County, California, 92392, United States""]",92392
15,McDonald's,34.5071536,-117.397862,"12254 Palmdale Rd, Victorville","['12254, Palmdale Road, Victorville, San Bernardino County, California, 92392, United States']",92392
16,McDonald's,34.1824037,-117.4387964,"3870 Sierra Ave, Fontana","['3870, Sierra Avenue, Fontana, San Bernardino County, California, 92336, United States']",92336
17,McDonald's,34.24384970000001,-116.89863,"41412 Big Bear Blvd, Big Bear Lake","[""McDonald's, 41412, Big Bear Boulevard, Big Bear Lake, San Bernardino County, California, 92315, United States""]",92315
18,McDonald's,34.4659316,-117.3538827,"11896 Amargosa Rd, Victorville","['Walmart Supercenter, 11896, Amargosa Road, Victorville, San Bernardino County, California, 92392, United States']",92392
19,McDonald's,34.2439661,-117.2778739,"24078 Lake Dr, Crestline","[""McDonald's, 24078, Lake Drive, Crestline, San Bernardino County, California, 92325, United States""]",92325
20,McDonald's,34.0240073,-118.3727691,"3501 S La Cienega Blvd, Los Angeles","['3501, South La Cienega Boulevard, Sentous, Baldwin Hills/Crenshaw, Los Angeles, Los Angeles County, California, 90016, United States']",90016
21,McDonald's,33.9457987,-118.3707815,"5223 W Century Blvd, Los Angeles","['5223, West Century Boulevard, Westchester, Inglewood, Los Angeles County, California, 90045, United States']",90045
22,McDonald's,34.2330776,-118.4377228,"14024 Osborne St, Pacoima","['Osborne Street, Pacoima, Los Angeles, Los Angeles County, California, 91331-2536, United States']",91331-2536
23,McDonald's,34.2576977,-118.4329437,"13770 Van Nuys Blvd, Pacoima","['Van Nuys Boulevard, Pacoima, Los Angeles, Los Angeles County, California, 91331-2536, United States']",91331-2536
24,McDonald's,34.0428715,-118.3767089,"1845 S La Cienega Blvd, Los Angeles","['La Cienega Boulevard, Sentous, Baldwin Hills/Crenshaw, Los Angeles, Los Angeles County, California, 90250, United States']",90250
26,McDonald's,34.2703485,-118.467673,"11015 Sepulveda Blvd, Mission Hills","['Sepulveda Boulevard, Mission Hills, Los Angeles, Los Angeles County, California, 91345, United States']",91345
27,McDonald's,34.02125,-118.355122,"3602 S La Brea Ave, Los Angeles","['South La Brea Avenue, La Brea Ave, Los Angeles, Hancock Park, Los Angeles, Los Angeles County, California, 90036-2829, United States']",90036-2829
29,McDonald's,34.0324431,-118.2669915,"201 W Washington Blvd, Los Angeles","['201, West Washington Boulevard, Historic South-Central, Los Angeles, Los Angeles County, California, 90015, United States']",90015
30,McDonald's,34.0639244,-118.3667441,"6345 Wilshire Blvd, Los Angeles","[""McDonald's, 6345, Wilshire Boulevard, Westlake South, Westlake, Los Angeles, Los Angeles County, California, 90057-4101, United States""]",90057-4101
31,McDonald's,33.9887974,-118.2910302,"988 W Slauson Ave, Los Angeles","['988, West Slauson Avenue, Vermont-Slauson, Los Angeles, Los Angeles County, California, 90044, United States']",90044
32,McDonald's,34.0516483,-118.3691052,"5930 W Pico Blvd, Los Angeles","['West Pico Boulevard, Cheviot Hills, Los Angeles, Los Angeles County, California, 90064, United States']",90064
33,McDonald's,34.095333,-118.2839879,"4348 Sunset Blvd, Los Angeles","['Sunset Blvd., Van Nuys, Los Angeles, Los Angeles County, California, 91406-1232, United States']",91406-1232
35,McDonald's,34.2500334,-118.5027677,"9857 Balboa Blvd, Northridge","['9857, Balboa Boulevard, Northridge, North Hills, Los Angeles, Los Angeles County, California, 91325, United States']",91325
36,McDonald's,34.031392,-118.2440353,"1310 E Olympic Blvd, Los Angeles","['1310, East Olympic Boulevard, Downtown, Los Angeles, Los Angeles County, California, 90021, United States']",90021
37,McDonald's,33.9022753,-118.3350273,"3571 Rosecrans Ave, Hawthorne","['3571, Rosecrans Avenue, Hawthorne, Los Angeles County, California, 90250, United States']",90250
39,McDonald's,34.0565916,-118.4259707,"10451 Santa Monica Blvd, Los Angeles","['10451, Santa Monica Boulevard, West Los Angeles, Los Angeles, Los Angeles County, California, 90025, United States']",90025
40,McDonald's,37.808235,-122.41449,"145 Jefferson St, San Francisco","['San Francisco Dungeon, 105;145, Jefferson Street, Port of San Francisco, San Francisco, California, 94133-1312, United States']",94133-1312
41,McDonald's,37.79389,-122.399109,"235 Front St, San Francisco","[""McDonald's, 235, Front Street, Financial District, San Francisco, California, 94111, United States""]",94111
42,McDonald's,37.789217,-122.407641,"441 Sutter St, San Francisco","[""McDonald's, 441, Sutter Street, Union Square, San Francisco, California, 94108, United States""]",94108
43,McDonald's,37.7889468,-122.4014844,"609 Market St, San Francisco","[""McDonald's, 609, Market Street, Transbay, San Francisco, California, 94105, United States""]",94105
44,McDonald's,37.7798713,-122.4317172,"1100 Fillmore St, San Francisco","[""McDonald's, 1100, Fillmore Street, Western Addition, San Francisco, California, 94115, United States""]",94115
45,McDonald's,37.76541510000001,-122.4079489,"302 Potrero Ave, San Francisco","[""McDonald's, 302, Potrero Avenue, San Francisco, California, 94103, United States""]",94103
46,McDonald's,37.7521054,-122.4180956,"2801 Mission St, San Francisco","[""McDonald's, 2801, Mission Street, Liberty Street Historic District, San Francisco, California, 94110, United States""]",94110
47,McDonald's,37.74215,-122.4052028,"345 Bayshore Blvd, San Francisco","[""McDonald's, 345, Bayshore Boulevard, San Francisco, California, 94124, United States""]",94124
48,McDonald's,37.7263623,-122.4762351,"255 Winston Dr, San Francisco","['255, Winston Drive, San Francisco, California, 94132, United States']",94132
49,McDonald's,37.7280965,-122.3927346,"5411 3rd St, San Francisco","['5411, 3rd Street, Bayview District, San Francisco, California, 94124, United States']",94124
50,McDonald's,37.7131803,-122.4445321,"5454 Mission St, San Francisco","['5454, Mission Street, Crocker-Amazon, San Francisco, California, 94112, United States']",94112
51,McDonald's,37.8492332,-122.2859629,"6623 San Pablo Ave, Oakland","['6623;6625, San Pablo Avenue, Oakland, Alameda County, California, 94608, United States']",94608
52,McDonald's,37.7235151,-122.4554622,"1201 Ocean Ave, San Francisco","['1201, Ocean Avenue, Ingleside, San Francisco, California, 94112, United States']",94112
53,McDonald's,37.7066188,-122.4153703,"2750 Geneva Ave, Daly City","['2750, Geneva Avenue, Bayshore, Daly City, San Mateo County, California, 94014, United States']",94014
54,McDonald's,37.833517,-122.262937,"4514 Telegraph Ave, Oakland","['4514, Telegraph Avenue, Temescal, Oakland, Alameda County, California, 94609, United States']",94609
55,McDonald's,37.7717117,-122.2761118,"715 Central Ave, Alameda","['715, Central Avenue, West End, Alameda, Alameda County, California, 94501, United States']",94501
56,McDonald's,37.8031755,-122.28219,"800 Market St, Oakland","['Market Street, Old Oakland Historic District, Oakland, Alameda County, California, 94607, United States']",94607
57,McDonald's,37.8017312,-122.2650077,"1330 Jackson St, Oakland","[""McDonald's, 1330, Jackson Street, Civic Center, Oakland, Alameda County, California, 94612, United States""]",94612
58,McDonald's,37.781424,-122.234254,"2520 E 12th St, Oakland","['2520, East 12th Street, Jingletown, Oakland, Alameda County, California, 94601, United States']",94601
59,McDonald's,37.8906567,-122.5160605,"600 Redwood Hwy, Mill Valley","[""McDonald's, 600, Redwood Highway Frontage Road, Strawberry Manor, Mill Valley, Marin County, California, 94941, United States""]",94941
60,McDonald's,33.9474096,-118.1179069,"10207 Lakewood Blvd, Downey","['10207, Lakewood Boulevard, Downey, Los Angeles County, California, 90241, United States']",90241
61,McDonald's,34.0998762,-118.1178279,"909 E Main St, Alhambra","['Main Street, Alhambra, Los Angeles County, California, 91802, United States']",91802
62,McDonald's,34.106949,-117.82046,"741 Arrow Hwy, San Dimas","['741, West Arrow Highway, San Dimas, Los Angeles County, California, 91773, United States']",91773
63,McDonald's,33.9175957,-118.0141363,"14871 Imperial Hwy, La Mirada","['14871, Imperial Highway, La Mirada, Los Angeles County, California, 90638, United States']",90638
64,McDonald's,33.9901784,-117.9125861,"17951 Colima Rd, City of Industry","['Colima Road, City of Industry, West Covina, Los Angeles County, California, 91748, United States']",91748
65,McDonald's,33.8109218,-117.9147255,"1500 S Harbor Blvd, Anaheim","[""McDonald's, 1500, South Harbor Boulevard, Anaheim Resort District, Anaheim, Orange County, California, 92802, United States""]",92802
66,McDonald's,33.6855757,-117.8569125,"1780 Main St, Irvine","['1780, Main Street, Irvine Business Complex, Irvine, Orange County, California, 92614, United States']",92614
67,McDonald's,33.6932905,-117.8267196,"84 Corporate Park, Irvine","['84, Corporate Park, Corporate Park Plaza, Irvine Business Complex, Irvine, Orange County, California, 92606, United States']",92606
68,McDonald's,33.6159506,-117.7078906,"23861 Bridger Rd, Lake Forest","[""McDonald's, 23861, Bridger Road, Lake Forest, Orange County, California, 92630, United States""]",92630
69,McDonald's,33.6552438,-117.7022328,"24511 Trabuco Rd, Lake Forest","[""McDonald's, 24511, Trabuco Road, Lake Forest, Orange County, California, 92630, United States""]",92630
70,McDonald's,33.9325896,-118.1831557,"10721 Atlantic Ave, Lynwood","['Mcdonalds, 10721, Atlantic Avenue, Lynwood, Los Angeles County, California, 90222, United States']",90222
71,McDonald's,33.945129,-118.211532,"3309 Tweedy Blvd, South Gate","['3309, Tweedy Boulevard, South Gate, Los Angeles County, California, 90280, United States']",90280
72,McDonald's,33.780929,-117.914419,"12542 Harbor Blvd, Garden Grove","[""McDonald's, 12542, Harbor Boulevard, Garden Grove, Orange County, California, 92840, United States""]",92840
74,McDonald's,33.9868568,-117.8704054,"19775 Colima Rd, Rowland Heights","[""McDonald's, 19775, Colima Road, Rowland Heights, Los Angeles County, California, 91748, United States""]",91748
75,McDonald's,33.8583564,-118.0449087,"5062 Orangethorpe Ave, La Palma","[""McDonald's, 5062, Orangethorpe Avenue, La Palma, Orange County, California, 90623, United States""]",90623
76,McDonald's,33.7969529,-117.8360804,"606 N Tustin St, Orange","[""McDonald's, 606, North Tustin Street, Orange, Orange County, California, 92867, United States""]",92867
77,McDonald's,33.734215,-117.7617256,"3853 Portola Pkwy, Irvine","['Portola Parkway, Palmeras, Stonegate, Irvine, Orange County, California, 92618:92705, United States']",92618:92705
78,McDonald's,33.9048075,-117.4732098,"10952 Magnolia Ave, Riverside","['10952, Magnolia Avenue, Riverside, Riverside County, California, 92505, United States']",92505
79,McDonald's,33.643177,-117.9247925,"635 W 19th St, Costa Mesa","[""McDonald's, 635, West 19th Street, Costa Mesa, Orange County, California, 92627, United States""]",92627
80,McDonald's,33.8713954,-118.0828719,"17523 Pioneer Blvd, Artesia","['17523, Pioneer Boulevard, Artesia, Los Angeles County, California, 90701, United States']",90701
81,McDonald's,33.8013896,-117.9936529,"11097 Beach Blvd, Stanton","['11097, Beach Boulevard, Los Alamitos Junction, Stanton, Orange County, California, 90680, United States']",90680
83,McDonald's,38.005416,-121.3540625,"3143 W Benjamin Holt Dr, Stockton","['3143, West Benjamin Holt Drive, Stockton, San Joaquin County, California, 95219, United States']",95219
84,McDonald's,38.408519,-121.380353,"8710 Elk Grove Blvd, Elk Grove","[""McDonald's, 8710, Elk Grove Boulevard, Elk Grove, Sacramento County, California, 95624, United States""]",95624
85,McDonald's,38.67941,-121.319435,"6212 Auburn Blvd, Citrus Heights","['6212, Auburn Boulevard, Citrus Heights, Sacramento County, California, 95621, United States']",95621
86,McDonald's,38.6599181,-121.3473603,"5008 Auburn Blvd, Sacramento","['5008, Auburn Boulevard, Sacramento County, California, 95841, United States']",95841
88,McDonald's,38.4387779,-121.396713,"8361 Sheldon Rd, Elk Grove","['Arco, 8361, Sheldon Road, Elk Grove, Sacramento County, California, 95624, United States']",95624
90,McDonald's,38.116717,-121.257015,"841 E Kettleman Ln, Lodi","['841, East Kettleman Lane, Lodi, San Joaquin County, California, 95240, United States']",95240
91,McDonald's,38.588045,-121.288282,"10725 White Rock Rd, Rancho Cordova","['10725, White Rock Road, Rancho Cordova, Sacramento County, California, 95670, United States']",95670
92,McDonald's,38.6497005,-121.0682302,"4312 Town Center Blvd #7101, El Dorado Hills","['4312, Town Center Boulevard, El Dorado Hills Town Center, Springfield Meadows, El Dorado County, California, 95762, United States']",95762
93,McDonald's,38.7822969,-121.266464,"6710 Stanford Ranch Rd, Roseville","['6710, Stanford Ranch Road, Roseville, Placer County, California, 95678, United States']",95678
94,McDonald's,38.588344,-121.3052582,"10355 Folsom Blvd, Rancho Cordova","[""McDonald's, 10355, Folsom Boulevard, Rancho Cordova, Sacramento County, California, 95670, United States""]",95670
95,McDonald's,37.9852967,-121.3384673,"2505 W March Ln, Stockton","[""McDonald's, 2505, West March Lane, Stockton, San Joaquin County, California, 95207, United States""]",95207
96,McDonald's,38.741563,-121.22681,"8660 Sierra College Blvd, Roseville","['8660, Sierra College Boulevard, Renaissance Creek Shopping Center, Roseville, Placer County, California, 95661, United States']",95661
97,McDonald's,38.7464786,-121.2715613,"120 Harding Blvd, Roseville","[""McDonald's, 120, Harding Boulevard, Roseville, Placer County, California, 95678, United States""]",95678
98,McDonald's,38.7078198,-121.3124294,"7850 Lichen Dr, Citrus Heights","[""McDonald's, 7850, Lichen Drive, Citrus Heights, Sacramento County, California, 95621, United States""]",95621
99,McDonald's,38.7735752,-121.2692893,"1151 Galleria Blvd, Roseville","['1151, Galleria Boulevard, Roseville, Placer County, California, 95678, United States']",95678
100,McDonald's,38.6179559,-121.3670327,"4121 Marconi Ave, Sacramento","['4121, Marconi Avenue, Sacramento County, California, 95821, United States']",95821
101,McDonald's,38.664088,-121.2912861,"7411 Madison Ave, Citrus Heights","['7411, Madison Avenue, Citrus Heights, Sacramento County, California, 95610, United States']",95610
102,McDonald's,37.9282036,-122.3208865,"11821 San Pablo Ave, El Cerrito","[""McDonald's, 11821, San Pablo Avenue, El Cerrito, Contra Costa County, California, 9480, United States""]",9480
103,McDonald's,37.882503,-122.296925,"1198 San Pablo Ave, Berkeley","['1198, San Pablo Avenue, Westbrae, Berkeley, Alameda County, California, 94706, United States']",94706
104,McDonald's,37.936358,-122.3472716,"2301 Macdonald Ave, Richmond","[""McDonald's, 2301, MacDonald Avenue, Richmond, Contra Costa County, California, 94804, United States""]",94804
105,McDonald's,33.857912,-118.3543825,"19009 Hawthorne Blvd, Torrance","['19009, Hawthorne Boulevard, Dudmore, Torrance, Los Angeles County, California, 90503, United States']",90503
106,McDonald's,40.1821254,-122.219585,"215 Antelope Blvd, Red Bluff","['Antelope Boulevard, Red Bluff, Tehama County, California, 96080, United States']",96080
107,McDonald's,40.5706897,-122.3569572,"801 E Cypress Ave, Redding","[""McDonald's, 801, East Cypress Avenue, Redding, Shasta County, California, 96002, United States""]",96002
108,McDonald's,40.6801784,-122.3500113,"1695 Cascade Blvd, Shasta Lake","['1695, Cascade Boulevard, Shasta Lake, Shasta County, California, 96019, United States']",96019
109,McDonald's,40.60932400000001,-122.379011,"88 Lake Blvd, Redding","['88, Lake Boulevard, Redding, Shasta County, California, 96003, United States']",96003
110,McDonald's,40.5873925,-122.3502798,"1365 Churn Creek Rd, Redding","[""McDonald's, 1365, Churn Creek Road, Redding, Shasta County, California, 960032, United States""]",960032
111,McDonald's,40.4558523,-122.2941621,"3100 McMurray Dr, Anderson","['3100, McMurray Drive, Anderson, Shasta County, California, 96007, United States']",96007
112,McDonald's,37.733031,-120.959383,"6411 Oakdale Rd, Riverbank","['6411, Oakdale Road, Riverbank, Stanislaus County, California, 95367, United States']",95367
113,McDonald's,37.6742315,-120.9935904,"2118 McHenry Ave, Modesto","['2118, McHenry Avenue, Modesto, Stanislaus County, California, 95350, United States']",95350
114,McDonald's,37.6722361,-121.0308417,"1800 Prescott Rd, Modesto","['1800, Prescott Road, Modesto, Stanislaus County, California, 95350, United States']",95350
115,McDonald's,37.678435,-120.958132,"2601 Oakdale Rd, Modesto","['2601, Oakdale Road, Modesto, Stanislaus County, California, 95355, United States']",95355
116,McDonald's,37.655236,-120.957799,"801 Oakdale Rd, Modesto","['801, Oakdale Road, Modesto, Stanislaus County, California, 95355, United States']",95355
117,McDonald's,37.646463,-121.030666,"901 N Carpenter Rd, Modesto","['901, North Carpenter Road, Modesto, Stanislaus County, California, 95351, United States']",95351
118,McDonald's,37.6391561,-121.0001162,"900 9th St, Modesto","['900, 9th Street, Modesto, Stanislaus County, California, 95354, United States']",95354
119,McDonald's,37.6271003,-121.0133793,"409 Paradise Rd, Modesto","['Paradise Road, Modesto, Stanislaus County, California, 95351, United States']",95351
120,McDonald's,37.69992980000001,-121.0493937,"4120 Dale Rd, Modesto","['4120, Dale Road, Modesto, Stanislaus County, California, 95356, United States']",95356
121,McDonald's,38.082844,-120.559983,"33 N Main St, Angels Camp","['33, North Main Street, Altaville, Angels Camp, Calaveras County, California, 95222, United States']",95222
122,McDonald's,37.6889549,-121.0121779,"3430 Tully Rd, Modesto","['3430, Tully Road, Modesto, Stanislaus County, California, 95350, United States']",95350
123,McDonald's,37.7008063,-121.0739735,"4230 Salida Blvd, Salida","['Salida Boulevard, Salida, Stanislaus County, California, 95368, United States']",95368
124,McDonald's,38.3710014,-120.7982727,"12201 Trade Center Dr, Jackson","[""McDonald's, 12201, Trade Center Drive, Martell, Jackson, Amador County, California, 95642, United States""]",95642
125,McDonald's,37.77125849999999,-120.8358557,"1322 E F St, Oakdale","['1322, East F Street, Oakdale, Stanislaus County, California, 95361, United States']",95361
126,McDonald's,37.9751874,-120.3611925,"1261 Mono Way, Sonora","['1261, Mono Way, Sonora, Tuolumne County, California, 95370, United States']",95370
127,McDonald's,37.6386343,-120.7699404,"12101 Yosemite Blvd, Waterford","['12101, Yosemite Boulevard, Waterford, Stanislaus County, California, 95386, United States']",95386
128,McDonald's,37.638622,-120.9262622,"3801 Yosemite Blvd, Modesto","['Little Caesars, 3801, Yosemite Boulevard, Modesto, Stanislaus County, California, 95355, United States']",95355
129,McDonald's,37.9771917,-120.3163031,"14895 Mono Way, Sonora","['14895, Mono Way, Mono Village, Sonora, Tuolumne County, California, 95370, United States']",95370
130,McDonald's,37.7552253,-122.2520674,"2239 Shore Line Dr, Alameda","[""McDonald's, 2239, Shore Line Drive, South Shore, Alameda, Alameda County, California, 94501, United States""]",94501
131,McDonald's,37.872278,-122.268577,"1998 Shattuck Ave, Berkeley","[""McDonald's, 1998, Shattuck Avenue, Downtown Berkeley, Berkeley, Alameda County, California, 94704, United States""]",94704
132,McDonald's,37.7458841,-122.1955854,"640 Hegenberger Rd, Oakland","['640, Hegenberger Road, Oakland, Alameda County, California, 94621, United States']",94621
133,McDonald's,37.961557,-122.3266025,"3320 San Pablo Dam Rd, San Pablo","['San Pablo Dam Road, San Pablo, Contra Costa County, California, 94806, United States']",94806
134,McDonald's,37.7683425,-122.2234334,"4010 Alameda Ave, Oakland","[""McDonald's, 4010, Alameda Avenue, Oakland, Alameda County, California, 94601, United States""]",94601
135,McDonald's,37.7638513,-122.1961869,"6300 E 14th St, Oakland","['6300, International Boulevard, Oakland, Alameda County, California, 94621, United States']",94621
136,McDonald's,37.9669135,-122.3438868,"14480 San Pablo Ave, San Pablo","['14480, San Pablo Avenue, San Pablo, Contra Costa County, California, 94806, United States']",94806
137,McDonald's,37.744373,-122.171129,"9725 E 14th St, Oakland","['9725, International Boulevard, Oakland, Alameda County, California, 94603, United States']",94603
138,McDonald's,37.7681989,-122.1741668,"7300 Bancroft Ave, Oakland","['Bancroft Avenue, Seminary Park, Oakland, Alameda County, California, 94619, United States']",94619
139,McDonald's,37.7145342,-122.1778417,"1919 Davis St, San Leandro","['Walmart, 1919, Davis Street, San Leandro, Alameda County, California, 94577, United States']",94577
140,McDonald's,37.9838452,-122.3187178,"3350 Klose Way, Richmond","['3350, Klose Way, Hilltop Plaza, Richmond, Contra Costa County, California, 94806, United States']",94806
141,McDonald's,40.5824353,-124.1463848,"761 S Fortuna Blvd, Fortuna","['761, South Fortuna Boulevard, Fortuna, Humboldt County, California, 95540, United States']",95540
142,McDonald's,40.7763455,-124.1907022,"3450 Broadway St, Eureka","[""McDonald's, 3450, Broadway Street, Highland Park, Bucksport, Eureka, Humboldt County, California, 95503, United States""]",95503
143,McDonald's,40.902779,-124.0839478,"4901 Valley W Blvd, Arcata","['4901, Valley West Boulevard, Arcata, Humboldt County, California, 95521, United States']",95521
144,McDonald's,40.9325185,-124.1013372,"1500 Anna Sparks Way, McKinleyville","['U-Haul, 1500, Anna Sparks Way, McKinleyville, Humboldt County, California, 95519, United States']",95519
145,McDonald's,40.804449,-124.1527669,"1730 4th St, Eureka","['4th Street, Eureka, Humboldt County, California, 95501, United States']",95501
146,McDonald's,35.3681941,-120.8430557,"780 Quintana Rd, Morro Bay","[""McDonald's, 780, Quintana Road, Morro Bay, San Luis Obispo County, California, 93442, United States""]",93442
147,McDonald's,35.1367309,-120.6265341,"350 5 Cities Dr, Pismo Beach","['Five Cities Drive, Pismo Marsh, Pismo Beach, San Luis Obispo County, California, 93449, United States']",93449
148,McDonald's,35.2628982,-120.6774275,"275 Madonna Rd, San Luis Obispo","[""McDonald's, 275, Madonna Road, San Luis Obispo, San Luis Obispo County, California, 93405, United States""]",93405
149,McDonald's,35.4840843,-120.6658861,"6300 Morro Rd, Atascadero","['Old Morro Road, Summit Hills, Atascadero, San Luis Obispo County, California, 93423, United States']",93423
150,McDonald's,34.8646898,-120.4163373,"1150 E Clark Ave, Santa Maria","['1150, East Clark Avenue, Santa Maria, Orcutt, Santa Barbara County, California, 93455, United States']",93455
151,McDonald's,35.0377352,-120.4843538,"460 W Tefft St, Nipomo","['460, West Tefft Street, Nipomo, San Luis Obispo County, California, 93444, United States']",93444
152,McDonald's,35.120748,-120.586484,"410 E Grand Ave, Arroyo Grande","['410, East Grand Avenue, Arroyo Grande, San Luis Obispo County, California, 93420, United States']",93420
153,McDonald's,34.9296393,-120.4353957,"1710 S Broadway, Santa Maria","['1710, South Broadway, Santa Maria, Santa Barbara County, California, 93454, United States']",93454
154,McDonald's,34.9355543,-120.4191535,"1407 S Bradley Rd, Santa Maria","['1407, South Bradley Road, Santa Maria, Santa Barbara County, California, 93454, United States']",93454
155,McDonald's,34.9561905,-120.4351088,"320 N Broadway, Santa Maria","['320, North Broadway, Santa Maria, Santa Barbara County, California, 93454, United States']",93454
156,McDonald's,35.12083700000001,-120.612524,"1550 W Grand Ave, Grover Beach","[""McDonald's, 1550, West Grand Avenue, Grover Beach, San Luis Obispo County, California, 93433, United States""]",93433
157,McDonald's,34.9202951,-120.4535657,"2280 Skyway Dr, Santa Maria","['2280, Skyway Drive, Santa Maria, Santa Barbara County, California, 93455, United States']",93455
158,McDonald's,35.40829009999999,-119.0214479,"225 N Chester Ave, Oildale","['North Chester Avenue, Seguro, Kern County, California, 93301, United States']",93301
159,McDonald's,35.3548395,-119.0615668,"5410 Stockdale Hwy, Bakersfield","['5410, Stockdale Highway, Kern City, Bakersfield, Kern County, California, 93309, United States']",93309
160,McDonald's,35.3172057,-119.0332329,"2701 White Ln, Bakersfield","['2701, White Lane, Bakersfield, Kern County, California, 93304, United States']",93304
161,McDonald's,35.4994804,-119.2787282,"101 W Lerdo Hwy, Shafter","['101, West Lerdo Highway, Shafter, Kern County, California, 93263, United States']",93263
162,McDonald's,35.3176005,-119.0898053,"7901 White Ln, Bakersfield","['7901, White Lane, Bakersfield, Kern County, California, 93309, United States']",93309
163,McDonald's,35.3535509,-119.0196636,"11 S Chester Ave, Bakersfield","['11, South Chester Avenue, Bakersfield, Kern County, California, 93304, United States']",93304
165,McDonald's,35.4118862,-119.0609166,"5363 Olive Dr, Bakersfield","['5363, Olive Drive, Bakersfield, Kern County, California, 93308, United States']",93308
166,McDonald's,35.3755583,-118.9503143,"3037 Niles St, Bakersfield","['Niles Street, Kern, Bakersfield, Kern County, California, 93305, United States']",93305
167,McDonald's,35.3491832,-119.1267295,"11150 Stockdale Hwy, Bakersfield","['11150, Stockdale Highway, Bakersfield, Kern County, California, 93311, United States']",93311
169,McDonald's,35.4020704,-119.0930428,"4601 Coffee Rd, Bakersfield","['4601, Coffee Road, Bakersfield, Kern County, California, 93308, United States']",93308
170,McDonald's,35.3806354,-119.0231064,"2310 F St, Bakersfield","['2310, F Street, Bakersfield, Kern County, California, 93301, United States']",93301
171,McDonald's,35.20945770000001,-118.8329619,"798 Bear Mountain Blvd, Arvin","['798, Bear Mountain Boulevard, Arvin, Kern County, California, 93203, United States']",93203
172,McDonald's,35.383113,-119.146609,"13003 Rosedale Hwy, Bakersfield","['Rosedale Highway, Bakersfield, Kern County, California, 93301, United States']",93301
173,McDonald's,35.3671305,-119.0429183,"1000 Real Rd, Bakersfield","['1000, Real Road, Bakersfield, Kern County, California, 93309, United States']",93309
174,McDonald's,35.3755788,-119.0024977,"1812 Union Ave, Bakersfield","['1812, Union Avenue, Bakersfield, Kern County, California, 93305, United States']",93305
175,McDonald's,35.339931,-119.0536297,"4600 Ming Ave, Bakersfield","['4600, Ming Avenue, Bakersfield, Kern County, California, 93309, United States']",93309
176,McDonald's,35.2957503,-119.0772452,"6707 Panama Ln, Bakersfield","['6707, Panama Lane, Bakersfield, Kern County, California, 93313, United States']",93313
177,McDonald's,35.391518,-118.960843,"2601 Fashion Plaza, Bakersfield","['2601, Fashion Plaza, Bakersfield, Kern County, California, 93306, United States']",93306
178,McDonald's,35.5908749,-120.6948392,"1859 Ramada Dr, Paso Robles","['1859, Ramada Drive, Templeton, Paso Robles, San Luis Obispo County, California, 93446, United States']",93446
179,McDonald's,35.6147235,-120.6817885,"186 Niblick Rd, Paso Robles","[""McDonald's, 186, Niblick Road, Paso Robles, San Luis Obispo County, California, 93446, United States""]",93446
180,McDonald's,35.642786,-120.6864672,"2715 Black Oak Dr, Paso Robles","[""McDonald's, 2715, Black Oak Drive, Paso Robles, San Luis Obispo County, California, 93447, United States""]",93447
181,McDonald's,37.3433385,-120.6151061,"1521 Bell Dr, Atwater","['1521, Bell Drive, Atwater, Merced County, California, 95301, United States']",95301
182,McDonald's,37.4646513,-121.1415127,"1001 Sperry Ave, Patterson","['1001, Sperry Avenue, Patterson, Stanislaus County, California, 95363, United States']",95363
184,McDonald's,37.3000331,-120.494381,"1060 W 13th St, Merced","['1060, West 13th Street, Merced, Merced County, California, 95341, United States']",95341
185,McDonald's,37.5151448,-120.8484855,"2400 Geer Rd, Turlock","['2400, Geer Road, Turlock, Stanislaus County, California, 95382, United States']",95382
186,McDonald's,37.60876409999999,-120.938393,"1500 Mitchell Rd, Ceres","['1500, Mitchell Road, Ceres, Stanislaus County, California, 95307, United States']",95307
187,McDonald's,37.1258721,-120.2550836,"250 E Robertson Blvd, Chowchilla","['250, Robertson Boulevard, Chowchilla, Madera County, California, 93610, United States']",93610
188,McDonald's,37.1003978,-121.0151795,"13032 CA-33, Santa Nella","['33, Santa Nella, Monterrey Estates, Rancho Santa Margarita, Orange County, California, 92688, United States']",92688
189,McDonald's,37.2888203,-120.4549102,"1821 Motel Dr, Merced","[""McDonald's, 1821, Motel Drive, Merced, Merced County, California, 95341, United States""]",95341
190,McDonald's,37.6089217,-120.9739324,"1324 E Hatch Rd, Modesto","['Modesto Union Academy, East Hatch Road, Ceres, Stanislaus County, California, 95358, United States']",95358
191,McDonald's,37.05652,-120.835017,"1480 Mercey Springs Rd, Los Banos","['Mercey Springs Road, Los Banos, Merced County, California, 93635, United States']",93635
192,McDonald's,37.4924734,-120.8721037,"2000 W Main St, Turlock","['2000, West Main Street, Turlock, Stanislaus County, California, 95380, United States']",95380
193,McDonald's,38.550518,-121.4884767,"2985 Freeport Blvd, Sacramento","['2985, Freeport Boulevard, Land Park, Sacramento, Sacramento County, California, 95818, United States']",95818
194,McDonald's,38.5715551,-121.4668065,"3006 K St, Sacramento","['3006, K Street, Sacramento, Sacramento County, California, 95816, United States']",95816
195,McDonald's,38.596642,-121.415841,"1721 Howe Ave, Sacramento","[""McDonald's, 1721, Howe Avenue, Sacramento County, California, 95825, United States""]",95825
196,McDonald's,38.4965263,-121.4306214,"6091 Florin Rd, Sacramento","['6091, Florin Road, Parkway-South Sacramento, Elk Grove, Sacramento County, California, 95823, United States']",95823
197,McDonald's,38.5911195,-121.5494,"800 Riverpoint Cir, West Sacramento","['Riverpoint Circle, Riverpoint Marketplace, West Sacramento, Yolo County, California, 95605, United States']",95605
198,McDonald's,38.555945,-121.409971,"7901 College Town Dr, Sacramento","['7901, College Town Drive, Brighton, Sacramento, Sacramento County, California, 95826, United States']",95826
199,McDonald's,38.58071899999999,-121.5311034,"1700 W Capitol Ave, West Sacramento","[""McDonald's, 1700, West Capitol Avenue, West Sacramento, Yolo County, California, 95691, United States""]",95691
200,McDonald's,38.455397,-121.404554,"8220 Calvine Rd, Sacramento","['8220, Calvine Road, Elk Grove, Sacramento County, California, 95828, United States']",95828
201,McDonald's,38.5967922,-121.5018634,"200 Richards Blvd, Sacramento","[""McDonald's, 200, Richards Boulevard, Sacramento, Sacramento County, California, 95811, United States""]",95811
202,McDonald's,38.5567865,-121.5400743,"2244 Lake Washington Blvd, West Sacramento","[""McDonald's, 2244, Lake Washington Boulevard, West Sacramento, Yolo County, California, 95691, United States""]",95691
203,McDonald's,38.5737152,-121.4095446,"2320 Fair Oaks Blvd, Sacramento","[""McDonald's, 2320, Fair Oaks Boulevard, Sacramento, Sacramento County, California, 95825, United States""]",95825
204,McDonald's,38.589637,-121.264855,"11250 White Rock Rd, Rancho Cordova","[""McDonald's, 11250, White Rock Road, Rancho Cordova, Sacramento County, California, 95742, United States""]",95742
205,McDonald's,38.5790204,-121.5482283,"2729 W Capitol Ave, West Sacramento","[""McDonald's, 2729, West Capitol Avenue, West Sacramento, Yolo County, California, 95691, United States""]",95691
207,McDonald's,33.7888913,-117.9611811,"9845 Chapman Ave, Garden Grove","[""McDonald's, 9845, Chapman Avenue, Garden Grove, Orange County, California, 92841, United States""]",92841
208,McDonald's,33.7882808,-117.8729381,"1839 W Chapman Ave, Orange","['1839, West Chapman Avenue, Orange, Orange County, California, 92868, United States']",92868
209,McDonald's,33.7890988,-118.3079488,"1712 Pacific Coast Hwy, Los Angeles","['1712, Pacific Coast Highway, Harbor City, Harbor Pines, Los Angeles, Los Angeles County, California, 90717, United States']",90717
210,McDonald's,33.734079,-117.850902,"1100 S Grand Ave, Santa Ana","['1100, Grand Avenue, Cedar Evergreen, Santa Ana, Orange County, California, 92705, United States']",92705
212,McDonald's,33.77445,-117.939448,"11171 Garden Grove Blvd, Garden Grove","['11171, Garden Grove Boulevard, Garden Grove, Orange County, California, 92843, United States']",92843
213,McDonald's,33.760221,-117.920786,"13971 Harbor Blvd, Garden Grove","['13971, Harbor Boulevard, Garden Grove, Orange County, California, 92840, United States']",92840
214,McDonald's,33.657405,-117.918706,"2300 Harbor Blvd, Costa Mesa","['The Home Depot, 2300, Harbor Boulevard, Costa Mesa, Orange County, California, 92626, United States']",92626
215,McDonald's,33.6850333,-117.9198821,"3141 Harbor Blvd, Costa Mesa","['3141, Harbor Boulevard, Costa Mesa, Orange County, California, 92626, United States']",92626
216,McDonald's,33.616249,-117.910663,"700 Pacific Coast Hwy, Newport Beach","['700, Pacific Coast Highway, Newport Heights, Newport Beach, Orange County, California, 92663, United States']",92663
217,McDonald's,33.730659,-117.798266,"2452 Bryan Ave, Tustin","['Bryan Avenue, Browning Station, Tustin, Orange County, California, 92780, United States']",92780
218,McDonald's,33.7823665,-118.1534153,"3302 E Anaheim St, Long Beach","['3302, East Anaheim Street, Long Beach, Los Angeles County, California, 90804, United States']",90804
219,McDonald's,33.7910204,-118.2609307,"230 E Pacific Coast Hwy, Wilmington","['Pacific Coast Highway, Wilmington, Los Angeles, Los Angeles County, California, 90744-4522, United States']",90744-4522
220,McDonald's,33.7172063,-117.9886933,"16866 Beach Blvd, Huntington Beach","[""McDonald's, 16866, Beach Boulevard, Ocean View, Huntington Beach, Orange County, California, 92647, United States""]",92647
221,McDonald's,33.730389,-118.014333,"6561 Edinger Ave, Huntington Beach","['6561, Edinger Avenue, Huntington Beach, Orange County, California, 92647, United States']",92647
222,McDonald's,33.746013,-117.821572,"245 E 1st St, Tustin","['245, East 1st Street, Browning, Tustin, Orange County, California, 92780, United States']",92780
223,McDonald's,36.323174,-119.673378,"110 12th Ave, Hanford","['12th Avenue, Hanford, Kings County, California, 93230-5903, United States']",93230-5903
224,McDonald's,36.2538924,-120.2494919,"25145 W Dorris Ave, Coalinga","[""McDonald's, 25145, West Dorris Avenue, Coalinga, Fresno County, California, 93210, United States""]",93210
225,McDonald's,35.6154746,-119.6606921,"14802 Powers St, Lost Hills","['Mobil Mart, 14802, Powers Street, Lost Hills, Kern County, California, 93249, United States']",93249
226,McDonald's,36.1368319,-120.3634154,"396 W Elm Ave, Coalinga","['396, West Elm Avenue, Coalinga, Fresno County, California, 93210, United States']",93210
229,McDonald's,36.3129142,-119.7813334,"1089 N Lemoore Ave, Lemoore","['1089, North Lemoore Avenue, Lemoore, Kings County, California, 93245, United States']",93245
230,McDonald's,36.34303510000001,-119.6565943,"810 W Grangeville Blvd, Hanford","['810, West Grangeville Boulevard, Hanford, Kings County, California, 93230, United States']",93230
231,McDonald's,36.3276479,-119.6504366,"335 W Lacey Blvd, Hanford","['335, West Lacey Boulevard, Hanford, Kings County, California, 93230, United States']",93230
232,McDonald's,36.0976747,-119.5724487,"2003 Whitley Ave, Corcoran","['2003, Whitley Avenue, Corcoran, Kings County, California, 93212, United States']",93212
233,McDonald's,35.7465036,-119.2469881,"610 Woollomes Ave, Delano","['610, Woollomes Avenue, Delano, Kern County, California, 93215, United States']",93215
234,McDonald's,35.4031896,-119.4005672,"20700 Tracy Ave, Buttonwillow","[""McDonald's, 20700, Tracy Avenue, Buttonwillow, Kern County, California, 93206, United States""]",93206
235,McDonald's,35.6740459,-119.2281081,"101 W Sherwood Ave, McFarland","['101, West Sherwood Avenue, McFarland, Kern County, California, 93250, United States']",93250
236,McDonald's,34.0721813,-117.3697885,"1615 S Riverside Ave, Rialto","['1615, South Riverside Avenue, Rialto, San Bernardino County, California, 92376, United States']",92376
237,McDonald's,33.975335,-117.35923,"2242 University Ave, Riverside","['2242, University Avenue, Riverside, Riverside County, California, 92507, United States']",92507
238,McDonald's,34.0633655,-117.2835351,"100 E Redlands Blvd, San Bernardino","['100, East Redlands Boulevard, Redlands, San Bernardino County, California, 92373, United States']",92373
239,McDonald's,33.915807,-117.327162,"221 E Alessandro Blvd, Riverside","['Alessandro Boulevard, Moreno Valley, Riverside County, California, 92553, United States']",92553
240,McDonald's,33.935412,-117.403168,"7474 Indiana Ave, Riverside","['7474, Indiana Avenue, Casa Blanca, Riverside, Riverside County, California, 92504, United States']",92504
241,McDonald's,33.939007,-117.279522,"2891 Canyon Springs Pkwy, Riverside","['2891, Canyon Springs Parkway, Riverside, Riverside County, California, 92507, United States']",92507
242,McDonald's,34.1024649,-117.2982945,"699 W 2nd St, San Bernardino","['699, West 2nd Street, San Bernardino, San Bernardino County, California, 92410, United States']",92410
243,McDonald's,33.917733,-117.236419,"24440 Alessandro Blvd, Moreno Valley","['24440, Alessandro Boulevard, Moreno Valley, Riverside County, California, 92553, United States']",92553
244,McDonald's,34.0478392,-117.3094153,"1201 S Mt Vernon Ave, Colton","['Mount Vernon Avenue, Colton, San Bernardino County, California, 92324, United States']",92324
245,McDonald's,33.8451617,-117.2248017,"64 Ramona Expy, Perris","['Ramona Expressway, Perris, Riverside County, California, 92551, United States']",92551
246,McDonald's,33.9905642,-117.3393112,"2246 Iowa Ave, Riverside","['2246, Iowa Avenue, Riverside, Riverside County, California, 92507, United States']",92507
247,McDonald's,34.0632646,-117.2094695,"1620 W Redlands Blvd, Redlands","['1620, West Redlands Boulevard, Redlands, San Bernardino County, California, 92373, United States']",92373
248,McDonald's,34.121058,-117.3708688,"111 W Baseline Rd, Rialto","['West Baseline Road, Rialto, San Bernardino County, California, 92376-4861, United States']",92376-4861
249,McDonald's,34.0477435,-117.241611,"25775 Barton Rd, Loma Linda","['25775, Barton Road, Loma Linda, San Bernardino County, California, 92354, United States']",92354
251,McDonald's,34.0549306,-117.1755999,"612 E Redlands Blvd, Redlands","[""McDonald's, 612, East Redlands Boulevard, Redlands, San Bernardino County, California, 92374, United States""]",92374
253,McDonald's,33.7264428,-117.0099357,"1231 S Sanderson Ave, Hemet","['Walmart Supercenter, 1231, South Sanderson Avenue, Egan, Hemet, Riverside County, California, 92545, United States']",92545
254,McDonald's,33.81335620000001,-116.486069,"5601 Ramon Rd, Palm Springs","['East Ramon Road, Cathedral City, Riverside County, California, 92276, United States']",92276
255,McDonald's,34.0334967,-117.3190068,"22257 Barton Rd, Grand Terrace","[""McDonald's, 22257, Barton Road, Grand Terrace, San Bernardino County, California, 92313, United States""]",92313
256,McDonald's,34.4698566,-117.366024,"13625 Bear Valley Rd, Victorville","['13625, Bear Valley Road, Victorville, San Bernardino County, California, 92392, United States']",92392
257,McDonald's,34.52641,-117.221721,"20221 CA-18, Apple Valley","['18, Apple Valley, Myford, Lower Peters Canyon, Irvine, Orange County, California, 92602, United States']",92602
258,McDonald's,33.946419,-117.421568,"5425 Arlington Ave, Riverside","['5425, Arlington Avenue, Riverside, Riverside County, California, 92504, United States']",92504
259,McDonald's,33.908458,-117.436282,"2905 Van Buren Boulevard, Riverside","['2905, Van Buren Boulevard, Arlington Station, Riverside, Riverside County, California, 92503, United States']",92503
260,McDonald's,33.9139208,-117.4588144,"10141 Magnolia Ave, Riverside","['10141, Magnolia Avenue, Riverside, Riverside County, California, 92503, United States']",92503
261,McDonald's,34.106131,-117.453966,"16063 Foothill Blvd, Fontana","['16063, Foothill Boulevard, Fontana, San Bernardino County, California, 92335, United States']",92335
262,McDonald's,33.9759064,-117.4769166,"8875 Limonite Ave, Riverside","['8875, Limonite Avenue, Pedley, Jurupa Valley, Riverside County, California, 92509, United States']",92509
263,McDonald's,34.1071298,-117.4897604,"14454 Foothill Blvd, Fontana","['14454, Foothill Boulevard, Fontana, San Bernardino County, California, 92335, United States']",92335
264,McDonald's,34.0697825,-117.139197,"1796 E Lugonia Ave, Redlands","['1796, East Lugonia Avenue, Redlands, San Bernardino County, California, 92374, United States']",92374
265,McDonald's,37.69203,-122.471282,"2450 Junipero Serra Blvd, Daly City","['2450, Junipero Serra Boulevard, Daly City, San Mateo County, California, 94015, United States']",94015
267,McDonald's,33.802144,-117.225594,"1675 N Perris Blvd, Perris","['NCHS Perris Health Center, 1675, North Perris Boulevard, Perris, Riverside County, California, 92571, United States']",92571
268,McDonald's,34.091806,-117.314131,"568 S Mt Vernon Ave, San Bernardino","['568, South Mount Vernon Avenue, Bunker Hill, San Bernardino, San Bernardino County, California, 92410, United States']",92410
269,McDonald's,33.930845,-116.818907,"48350 Seminole Dr, Cabazon","['Seminole Drive, Cabazon, Riverside County, California, 92230, United States']",92230
271,McDonald's,39.14667730000001,-121.6444169,"1254 Stabler Ln, Yuba City","['1254, Stabler Lane, Yuba City, Sutter County, California, 95993, United States']",95993
272,McDonald's,39.1386246,-121.590874,"316 E St, Marysville","[""McDonald's, 316, E Street, Marysville, Yuba County, California, 95901, United States""]",95901
273,McDonald's,39.1413426,-121.6292449,"866 Colusa Ave, Yuba City","['Colusa Avenue, Yuba City, Sutter County, California, 905, United States']",905
274,McDonald's,39.759287,-121.856615,"2452 Connors Ave, Chico","['Connors Avenue, Chico, Butte County, California, 95973, United States']",95973
275,McDonald's,39.716568,-121.795763,"2444 Notre Dame Blvd, Chico","['2444, Notre Dame Boulevard, Chico, Butte County, California, 95928, United States']",95928
277,McDonald's,39.3599066,-121.6883992,"1513 CA-99, Gridley","['CA 99, Gridley, Butte County, California, 95948, United States']",95948
279,McDonald's,39.7617134,-121.8211468,"1388 East Ave, Chico","['1388, East Avenue, Chico, Butte County, California, 95926, United States']",95926
280,McDonald's,39.7378843,-121.8353105,"655 Palmetto Ave, Chico","['655, Palmetto Avenue, Chico, Butte County, California, 95926, United States']",95926
281,McDonald's,39.5245279,-122.2177811,"1401 W Wood St, Willows","['West Wood Street, Willows, Glenn County, California, 95988, United States']",95988
282,McDonald's,37.3652853,-118.3949596,"562 N Main St, Bishop","[""McDonald's, 562, North Main Street, Bishop Trailer Park, Bishop, Inyo County, California, 93514, United States""]",93514
283,McDonald's,33.6086843,-114.6059141,"191 S Lovekin Blvd, Blythe","[""McDonald's, 191, South Lovekin Boulevard, Blythe, Riverside County, California, 92225, United States""]",92225
286,McDonald's,32.6727243,-115.4983512,"720 Imperial Ave, Calexico","['720, South Imperial Avenue, Calexico, Imperial County, California, 92231, United States']",92231
287,McDonald's,32.7957786,-115.5694791,"345 N Imperial Ave, El Centro","[""McDonald's, 345, North Imperial Avenue, El Centro, Imperial County, California, 92243, United States""]",92243
288,McDonald's,32.9789762,-115.5422936,"105 W Main St, Brawley","['105, West Main Street, Brawley, Imperial County, California, 92227, United States']",92227
290,McDonald's,32.854392,-115.5704326,"810 N Imperial Ave, Imperial","['810, North Imperial Avenue, El Centro, Imperial County, California, 92243, United States']",92243
294,McDonald's,34.0710356,-117.8795242,"3030 E Garvey Ave S, West Covina","['3030, East Garvey Avenue South, West Covina, Los Angeles County, California, 91791, United States']",91791
295,McDonald's,34.4018818,-119.7223487,"1906 Cliff Dr, Santa Barbara","['1906, Cliff Drive, The Mesa, Santa Barbara, Santa Barbara County, California, 93109, United States']",93109
296,McDonald's,34.4222683,-119.6802254,"29 N Milpas St, Santa Barbara","['29, North Milpas Street, East Side, Santa Barbara, Santa Barbara County, California, 93103, United States']",93103
297,McDonald's,34.423608,-119.705139,"1213 State St, Santa Barbara","['Cat Therapy, 1213, State Street, Waterfront, Santa Barbara, Santa Barbara County, California, 93101, United States']",93101
298,McDonald's,34.440871,-119.753054,"3940 State St, Santa Barbara","[""McDonald's, 3940, State Street, Santa Barbara, Santa Barbara County, California, 93105, United States""]",93105
299,McDonald's,34.4368598,-119.8301855,"146 S Fairview Ave, Goleta","['146, South Fairview Avenue, Goleta, Santa Barbara County, California, 93117, United States']",93117
300,McDonald's,34.6139954,-120.1891208,"337 McMurray Rd, Buellton","['337, McMurray Road, Buellton, Santa Barbara County, California, 93427, United States']",93427
301,McDonald's,34.4290263,-119.8701266,"6900 Market Pl Dr, Goleta","['Market Place Drive, Goleta, Santa Barbara County, California, 93117-3021, United States']",93117-3021
302,McDonald's,34.6515643,-120.458235,"835 N H St, Lompoc","['835, North H Street, Lompoc, Santa Barbara County, California, 93436, United States']",93436
303,McDonald's,34.864475,-118.176343,"2511 W Rosamond Blvd, Rosamond","['2511, West Rosamond Boulevard, Rosamond, Kern County, California, 93560, United States']",93560
304,McDonald's,34.6969613,-118.1723904,"2301 W Lancaster Blvd, Lancaster","['Chevron, 2301, West Lancaster Boulevard, Lancaster, Los Angeles County, California, 93536, United States']",93536
305,McDonald's,34.6763291,-118.1127745,"43645 Challenger Way, Lancaster","['43645, Challenger Way, Lancaster, Los Angeles County, California, 93535, United States']",93535
306,McDonald's,35.0481866,-118.171875,"2351 CA-58, Mojave","['2351, Mojave-Barstow Highway, Mojave, Kern County, California, 93501, United States']",93501
307,McDonald's,34.7043203,-118.1467582,"839 W Ave I, Lancaster","['839, West Avenue I, Lancaster, Los Angeles County, California, 93534, United States']",93534
308,McDonald's,35.1245935,-118.4696122,"795 Tucker Rd, Tehachapi","['795, Tucker Road, Tehachapi, Kern County, California, 93561, United States']",93561
309,McDonald's,35.1260692,-118.4083352,"2000 E Tehachapi Blvd, Tehachapi","[""Loves' # 392 - Tehachapi, 2000, East Tehachapi Boulevard, Tehachapi, Kern County, California, 93561, United States""]",93561
310,McDonald's,34.68930930000001,-118.095186,"1860 E Ave. J, Lancaster","['1860, East Avenue J, Lancaster, Los Angeles County, California, 93535, United States']",93535
311,McDonald's,35.1256507,-117.9582741,"9628 California City Blvd, California City","['9628, California City Boulevard, California City, Kern County, California, 93505, United States']",93505
312,McDonald's,34.6744962,-118.1526207,"1200 W Ave K, Lancaster","[""McDonald's, 1200, West Avenue K, Lancaster, Los Angeles County, California, 93534, United States""]",93534
313,McDonald's,34.1068413,-117.5359326,"8070 Monet Ave, Rancho Cucamonga","['8070, Monet Avenue, Rancho Cucamonga, San Bernardino County, California, 91739, United States']",91739
314,McDonald's,33.8888067,-117.5204683,"400 N McKinley St, Corona","['North McKinley Street, Corona, Riverside County, California, 92515, United States']",92515
315,McDonald's,34.1069157,-117.5593496,"11198 Foothill Blvd, Rancho Cucamonga","['11198, Foothill Boulevard, Rancho Cucamonga, San Bernardino County, California, 91730, United States']",91730
316,McDonald's,38.132096,-122.22367,"902 Admiral Callaghan Ln, Vallejo","[""McDonald's, 902, Admiral Callaghan Lane, Hunter Ranch, Vallejo, Solano County, California, 94590, United States""]",94590
317,McDonald's,38.1544686,-122.2532985,"5200 Sonoma Blvd, Vallejo","[""McDonald's, 5200, Sonoma Boulevard, Vallejo, Solano County, California, 94589, United States""]",94589
318,McDonald's,38.319935,-122.298506,"3224 Jefferson St, Napa","['Jefferson Street, Salvador, Napa, Napa County, California, 94558, United States']",94558
320,McDonald's,38.2934494,-122.030772,"3500 Nelson Rd, Fairfield","[""McDonald's, 3500, Nelson Road, Fairfield, Solano County, California, 94533, United States""]",94533
321,McDonald's,38.480345,-122.735997,"879 Hopper Ave, Santa Rosa","['Chevron Santa Rosa, 879, Hopper Avenue, Coffey Park, Santa Rosa, Sonoma County, California, 95403, United States']",95403
322,McDonald's,38.2221335,-122.1262564,"4400 Central Pl, Fairfield","['4400, Central Place, Fairfield, Solano County, California, 94534, United States']",94534
323,McDonald's,38.281065,-122.275561,"806 W Imola Ave, Napa","['806, West Imola Avenue, Napa, Napa County, California, 94559, United States']",94559
324,McDonald's,38.303093,-122.477002,"18988 Sonoma Hwy, Sonoma","[""McDonald's, 18988, Sonoma Highway, Verano, Sonoma County, California, 95476, United States""]",95476
325,McDonald's,38.249049,-122.0670435,"699 Beck Ave, Fairfield","['699, Beck Avenue, Fairfield, Solano County, California, 94533, United States']",94533
326,McDonald's,38.2692106,-122.0337483,"2212 N Texas St, Fairfield","['2212, North Texas Street, Fairfield, Solano County, California, 94533, United States']",94533
327,McDonald's,38.2494674,-122.6271654,"103 S McDowell Blvd, Petaluma","['103, South McDowell Boulevard, Petaluma, Sonoma County, California, 94954, United States']",94954
328,McDonald's,38.457976,-122.673471,"50 Mission Cir, Santa Rosa","['50, Mission Circle, Santa Rosa, Sonoma County, California, 95409, United States']",95409
329,McDonald's,38.2356637,-122.6229995,"981 Lakeville Hwy, Petaluma","['Lakeville Highway, McNear, Petaluma, Sonoma County, California, 94952, United States']",94952
330,McDonald's,38.5476053,-122.8114884,"125 Windsor River Rd, Windsor","['125, Windsor River Road, Windsor, Sonoma County, California, 95492, United States']",95492
331,McDonald's,38.452911,-122.71688,"1264 Mendocino Ave, Santa Rosa","[""McDonald's, 1264, Mendocino Avenue, Santa Rosa, Sonoma County, California, 95402, United States""]",95402
332,McDonald's,38.6055233,-122.8684099,"110 Healdsburg Ave, Healdsburg","['110, Healdsburg Avenue, Healdsburg, Sonoma County, California, 95448, United States']",95448
333,McDonald's,38.344415,-122.711631,"6600 Commerce Blvd, Rohnert Park","['6600, Commerce Boulevard, Rohnert Park, Sonoma County, California, 94926, United States']",94926
334,McDonald's,38.2588229,-122.0673794,"3080 Travis Blvd, Fairfield","['3080, Travis Boulevard, Fairfield, Solano County, California, 94534, United States']",94534
335,McDonald's,38.4529283,-122.7705237,"2521 Guerneville Rd, Santa Rosa","['2521, Guerneville Road, Santa Rosa, Sonoma County, California, 95401, United States']",95401
336,McDonald's,34.1960317,-119.1603107,"605 S Rose Ave, Oxnard","['605, South Rose Avenue, Oxnard, Ventura County, California, 93030, United States']",93030
337,McDonald's,34.2014569,-118.5423343,"18761 Sherman Way, Reseda","['18761, Sherman Way, Reseda, Los Angeles, Los Angeles County, California, 91335, United States']",91335
338,McDonald's,34.2332861,-119.172805,"110 Riverpark Blvd, Oxnard","['110, Riverpark Boulevard, El Rio, Oxnard, Ventura County, California, 93036, United States']",93036
339,McDonald's,34.2588235,-118.5356475,"10350 Reseda Blvd, Northridge","[""McDonald's, 10350, Reseda Boulevard, Northridge, Los Angeles, Los Angeles County, California, 91324-2036, United States""]",91324-2036
340,McDonald's,34.217213,-119.177873,"1711 N Oxnard Blvd, Oxnard","['North Oxnard Boulevard, Riverpark, Oxnard, Ventura County, California, 93036, United States']",93036
341,McDonald's,34.2793635,-118.8743153,"501 New Los Angeles Ave, Moorpark","['501, New Los Angeles Avenue, Virginia Colony, Moorpark, Ventura County, California, 93021, United States']",93021
342,McDonald's,34.012092,-118.494355,"1540 2nd St, Santa Monica","['1540, 2nd Street, Santa Monica, Los Angeles County, California, 90401, United States']",90401
343,McDonald's,34.2223622,-119.158899,"2201 N Rose Ave, Oxnard","['2201, North Rose Avenue, Oxnard, Ventura County, California, 93036, United States']",93036
344,McDonald's,34.4231703,-118.563033,"27103 McBean Pkwy, Santa Clarita","['27103, McBean Parkway, Santa Clarita, Los Angeles County, California, 91354, United States']",91354
345,McDonald's,34.4461111,-118.5530556,"27776 McBean Pkwy, Valencia","['McBean Parkway, Valencia, Santa Clarita, Los Angeles County, California, 91355, United States']",91355
346,McDonald's,34.183338,-118.604401,"21901 Erwin St, Los Angeles","['21901, Erwin Street, Warner Center, Los Angeles, Los Angeles County, California, 91367, United States']",91367
347,McDonald's,34.1762851,-119.2090021,"401 W Channel Islands Blvd, Port Hueneme","['401, West Channel Islands Boulevard, Oxnard, Port Hueneme, Ventura County, California, 93041, United States']",93041
348,McDonald's,34.228637,-118.5545218,"19315 Parthenia St, Northridge","['19315, Parthenia Street, Northridge, Los Angeles, Los Angeles County, California, 91324, United States']",91324
349,McDonald's,34.193435,-118.587893,"6750 De Soto Ave, Canoga Park","['6750, De Soto Avenue, Canoga Park, Los Angeles, Los Angeles County, California, 91303, United States']",91303
351,McDonald's,34.2665047,-119.272331,"2137 E Harbor Blvd, Ventura","['2137, East Harbor Boulevard, Pierpont Bay, Ventura, Ventura County, California, 93001, United States']",93001
353,McDonald's,34.2107219,-118.8434887,"1908 E Avenida De Los Arboles, Thousand Oaks","['1908, East Avenida de Los Arboles, Thousand Oaks, Ventura County, California, 91362, United States']",91362
354,McDonald's,34.1880986,-118.9406137,"850 Wendy Dr, Newbury Park","['North Wendy Drive, Casa Conejo, Thousand Oaks, Ventura County, California, 91320, United States']",91320
355,McDonald's,37.6480253,-122.4296102,"587 El Camino Real, South San Francisco","['587, El Camino Real, Baden, South San Francisco, San Mateo County, California, 94080, United States']",94080
356,McDonald's,37.6439805,-122.4036431,"381 S Airport Blvd, South San Francisco","['381, South Airport Boulevard, South San Francisco, San Mateo County, California, 94080, United States']",94080
357,McDonald's,37.6521951,-122.4912675,"125 Monterey Rd, Pacifica","[""McDonald's, 125, Monterey Road, Edgemar, Pacifica, San Mateo County, California, 94044, United States""]",94044
358,McDonald's,37.6688974,-122.4699976,"505 Serramonte Blvd, Daly City","[""McDonald's, 505, Serramonte Boulevard, Daly City, San Mateo County, California, 94015, United States""]",94015
359,McDonald's,37.707845,-122.132916,"14823 E 14th St, San Leandro","['14823, East 14th Street, San Leandro, Alameda County, California, 94578, United States']",94578
360,McDonald's,37.6065481,-122.3984272,"1101 El Camino Real, Millbrae","[""McDonald's, 1101, El Camino Real, Millbrae, San Mateo County, California, 94030, United States""]",94030
361,McDonald's,37.689144,-122.063058,"2905 Grove Way, Castro Valley","['2905, Grove Way, Castro Valley, Alameda County, California, 94546, United States']",94546
362,McDonald's,37.6314189,-122.0965272,"2299 W Tennyson Rd, Hayward","['2299, West Tennyson Road, Hayward, Alameda County, California, 94545, United States']",94545
363,McDonald's,37.6667562,-122.1061733,"355 W A St, Hayward","[""McDonald's, 355, West A Street, Hayward, Alameda County, California, 94541, United States""]",94541
364,McDonald's,37.6921026,-122.0897166,"1620 Strobridge Ave, Castro Valley","['1620, Strobridge Avenue, Castro Valley, Alameda County, California, 94546, United States']",94546
365,McDonald's,37.6437801,-122.4537025,"2298 Gellert Blvd, South San Francisco","['2298, Gellert Boulevard, Westborough, South San Francisco, San Mateo County, California, 94080, United States']",94080
366,McDonald's,37.7245775,-121.9432291,"21001 San Ramon Valley Blvd, San Ramon","['Starbucks, 21001, San Ramon Valley Boulevard, San Ramon, Contra Costa County, California, 94583, United States']",94583
367,McDonald's,37.5343206,-121.9667494,"40708 Grimmer Blvd, Fremont","[""McDonald's, 40708, Grimmer Boulevard, Irvington District, Fremont, Alameda County, California, 94538, United States""]",94538
368,McDonald's,34.112794,-117.762017,"2269 Foothill Blvd, La Verne","[""McDonald's, 2269, Foothill Boulevard, La Verne, Los Angeles County, California, 91750, United States""]",91750
370,McDonald's,33.8889615,-117.8105401,"18515 Yorba Linda Blvd, Yorba Linda","[""McDonald's, 18515, Yorba Linda Boulevard, Yorba Linda, Orange County, California, 92886, United States""]",92886
371,McDonald's,33.6527935,-117.6469727,"27700 Santa Margarita Pkwy, Mission Viejo","[""McDonald's, 27700, Santa Margarita Parkway, Mission Viejo, Orange County, California, 92691, United States""]",92691
372,McDonald's,34.0238797,-117.6889255,"12625 Central Ave, Chino","['12625, Central Avenue, Chino, San Bernardino County, California, 91710, United States']",91710
373,McDonald's,34.121191,-117.6155788,"8701 Base Line Rd, Rancho Cucamonga","['8701, Base Line Road, Alta Loma, Rancho Cucamonga, San Bernardino County, California, 91730, United States']",91730
374,McDonald's,33.6806754,-117.6653954,"26692 Portola Pkwy, Foothill Ranch","[""McDonald's, 26692, Portola Parkway, Foothill Ranch, Lake Forest, Orange County, California, 92610, United States""]",92610
375,McDonald's,37.33723,-122.0410278,"10990 N Stelling Rd, Cupertino","[""McDonald's, 10990, North Stelling Road, Cupertino, Santa Clara County, California, 95014-0353, United States""]",95014-0353
376,McDonald's,37.3934387,-122.0289637,"696 N Mathilda Ave, Sunnyvale","[""McDonald's, 696, North Mathilda Avenue, Sunnyvale, Santa Clara County, California, 94085, United States""]",94085
377,McDonald's,37.3832213,-121.8955898,"1702 Old Oakland Rd, San Jose","[""McDonald's, 1702, Oakland Road, Wayne, San Jose, Santa Clara County, California, 95131, United States""]",95131
378,McDonald's,37.3629441,-122.0272066,"556 E El Camino Real, Sunnyvale","['556, East El Camino Real, Sunnyvale, Santa Clara County, California, 94087, United States']",94087
379,McDonald's,37.4194009,-122.0936501,"1060 Rengstorff Ave, Mountain View","['Rengstorff Avenue, Mountain View, Santa Clara County, California, 94043, United States']",94043
380,McDonald's,37.3486531,-121.8650277,"1299 E Santa Clara St, San Jose","[""McDonald's, 1299, East Santa Clara Street, Little Portugal, San Jose, Santa Clara County, California, 95116, United States""]",95116
381,McDonald's,37.3854773,-121.995403,"550 Lawrence Expy, Sunnyvale","[""McDonald's, 550, Lawrence Expressway, Sunnyvale, Santa Clara County, California, 94088-3453, United States""]",94088-3453
382,McDonald's,37.3232338,-121.9133044,"1398 W San Carlos St, San Jose","['McDonalds, 1398, West San Carlos Street, Buena Vista, San Jose, Santa Clara County, California, 95126, United States']",95126
383,McDonald's,37.4178054,-121.8715766,"1795 Landess Ave, Milpitas","[""McDonald's, 1795, Landess Avenue, Milpitas, Santa Clara County, California, 95035, United States""]",95035
384,McDonald's,37.3670152,-121.8484982,"2353 McKee Rd, San Jose","[""McDonald's, 2353, McKee Road, San Jose, Santa Clara County, California, 95116, United States""]",95116
385,McDonald's,37.2899339,-121.8806531,"2434 Almaden Rd, San Jose","['McDonalds, 2434, Almaden Road, San Jose, Santa Clara County, California, 95125, United States']",95125
386,McDonald's,37.3309324,-121.8603368,"777 Story Rd, San Jose","['Walmart Supercenter, 777, Story Road, Little Saigon, San Jose, Santa Clara County, California, 95122, United States']",95122
387,McDonald's,37.2999234,-121.8224553,"1033 E Capitol Expy, San Jose","['McDonalds, 1033, East Capitol Expressway, San Jose, Santa Clara County, California, 95121, United States']",95121
388,McDonald's,37.303899,-122.031826,"1150 S De Anza Blvd, San Jose","[""McDonald's, 1150, South De Anza Boulevard, San Jose, Santa Clara County, California, 95129, United States""]",95129
389,McDonald's,37.3047613,-121.862897,"2191 Monterey Rd, San Jose","[""McDonald's, 2191, Monterey Road, Spartan Keyes, San Jose, Santa Clara County, California, 95125, United States""]",95125
390,McDonald's,37.2728494,-121.9335242,"2699 Union Ave, San Jose","[""McDonald's, 2699, Union Avenue, San Jose, Santa Clara County, California, 95124, United States""]",95124
391,McDonald's,37.4211531,-122.1395662,"3128 El Camino Real, Palo Alto","['El Camino Real, Palo Alto, Santa Clara County, California, 94301, United States']",94301
392,McDonald's,37.3236817,-121.9690762,"3895 Stevens Creek Blvd, Santa Clara","['3895, Stevens Creek Boulevard, Santa Clara, Santa Clara County, California, 95117, United States']",95117
393,McDonald's,37.3248198,-121.8231071,"1935 Tully Rd, San Jose","['1935, Tully Road, San Jose, Santa Clara County, California, 95122, United States']",95122
394,McDonald's,37.3498252,-121.82767,"2680 Story Rd, San Jose","[""McDonald's, 2680, Story Road, San Jose, Santa Clara County, California, 95122, United States""]",95122
395,McDonald's,32.950007,-117.107686,"12808 Rancho Penasquitos Blvd, San Diego","[""McDonald's, 12808, Rancho Peasquitos Boulevard, San Diego, San Diego County, California, 92129-2935, United States""]",92129-2935
396,McDonald's,32.753742,-117.218471,"3805 Midway Dr, San Diego","['3805, Midway Drive, San Diego, San Diego County, California, 92110, United States']",92110
397,McDonald's,33.596672,-117.676202,"25192 Cabot Rd, Laguna Hills","[""McDonald's, 25192, Cabot Road, Laguna Hills, Orange County, California, 92653, United States""]",92653
398,McDonald's,32.8068945,-117.2188237,"4711 Mission Bay Dr, San Diego","[""McDonald's, 4711, Mission Bay Drive, San Diego, San Diego County, California, 92109, United States""]",92109
399,McDonald's,33.013246,-117.078605,"16440 Bernardo Center Dr, San Diego","[""McDonald's, 16440, Bernardo Center Drive, Rancho Bernardo, San Diego, San Diego County, California, 92128, United States""]",92128
400,McDonald's,33.5233874,-117.6861906,"30305 Street Of The, Golden Lantern, Laguna Niguel","['Niguel Point Properties, Inc., 30251, Golden Lantern Street, Laguna Niguel, Orange County, California, 92677, United States']",92677
401,McDonald's,33.46528,-117.689822,"34277 CA-1, Dana Point","[""McDonald's, 34277, Pacific Coast Highway, Dana Point, Orange County, California, 92629, United States""]",92629
402,McDonald's,32.7186937,-117.1540936,"1280 Park Blvd, San Diego","[""1280, Park Boulevard, Core District, Banker's Hill, San Diego, San Diego County, California, 92101, United States""]",92101
403,McDonald's,32.8668212,-117.2153675,"4260 Nobel Dr, San Diego","['4260, Nobel Drive, University City, San Diego, San Diego County, California, 92122, United States']",92122
404,McDonald's,33.1482526,-117.199721,"120 S Rancho Santa Fe Rd, San Marcos","[""McDonald's, 120, South Rancho Santa Fe Road, San Marcos, San Diego County, California, 92069, United States""]",92069
405,McDonald's,32.8206588,-117.178022,"5920 Balboa Ave, San Diego","[""McDonald's, 5920, Balboa Avenue, Clairemont, San Diego, San Diego County, California, 92111, United States""]",92111
406,McDonald's,32.7488403,-117.150758,"1414 University Ave, San Diego","['1414, University Avenue, Hillcrest, San Diego, San Diego County, California, 92103, United States']",92103
407,McDonald's,32.7976126,-117.2495028,"1121 Garnet Ave, San Diego","['1121, Garnet Avenue, Pacific Beach, San Diego, San Diego County, California, 92109, United States']",92109
408,McDonald's,32.9819335,-117.0763226,"11915 Carmel Mountain Rd, San Diego","[""McDonald's, 11915, Carmel Mountain Road, Carmel Mountain Ranch, San Diego, San Diego County, California, 92128, United States""]",92128
409,McDonald's,32.833168,-117.201912,"5065 Clairemont Dr, San Diego","[""McDonald's, 5065, Clairemont Drive, North Clairemont, San Diego, San Diego County, California, 92117, United States""]",92117
410,McDonald's,33.566055,-117.708255,"27331 La Paz Rd, Laguna Niguel","['27331, La Paz Road, Laguna Niguel, Orange County, California, 92677, United States']",92677
411,McDonald's,32.8019176,-117.0117189,"8770 Lake Murray Blvd, San Diego","['8770, Lake Murray Boulevard, San Diego, San Diego County, California, 92119, United States']",92119
412,McDonald's,33.439496,-117.6201906,"650 Avenida Pico, San Clemente","[""McDonald's, 650, Avenida Pico, San Clemente, Orange County, California, 92673, United States""]",92673
413,McDonald's,32.727951,-117.2267667,"1624 Rosecrans St, San Diego","['1624, Rosecrans Street, Roseville, San Diego, San Diego County, California, 92106, United States']",92106
414,McDonald's,33.1226277,-117.3242339,"5990 Avenida Encinas, Carlsbad","[""McDonald's, 5990, Avenida Encinas, Farr, Carlsbad, San Diego County, California, 92008, United States""]",92008
416,McDonald's,36.5997527,-121.8880687,"610 Del Monte Ave, Monterey","['610, Del Monte Avenue, Monterey, Monterey County, California, 93940, United States']",93940
417,McDonald's,36.6190131,-121.844092,"990 Playa Ave, Sand City","['990, Playa Avenue, Sand City, Monterey County, California, 93955, United States']",93955
418,McDonald's,36.983059,-122.022357,"1210 Ocean St, Santa Cruz","['1210, Ocean Street, Ocean Street Commercial Corridor, Downtown, Santa Cruz, Santa Cruz County, California, 95060, United States']",95060
419,McDonald's,36.7046821,-121.6534639,"1365 N Main St, Salinas","['1365, North Main Street, Salinas, Monterey County, California, 93906, United States']",93906
420,McDonald's,36.9753076,-121.9637216,"1760 41st Ave, Capitola","[""McDonald's, 1760, 41st Avenue, Capitola, Santa Cruz County, California, 95010, United States""]",95010
421,McDonald's,36.685562,-121.794569,"267 Reservation Rd, Marina","[""McDonald's, 267, Reservation Road, Marina, Monterey County, California, 93933, United States""]",93933
422,McDonald's,36.7924016,-121.6663367,"17537 Vierra Canyon Rd, Salinas","[""McDonald's, 17537, Vierra Canyon Road, Rollin J. Vierra Tract, Salinas, Monterey County, California, 93907, United States""]",93907
423,McDonald's,36.6567541,-121.6595359,"1213 S Main St, Salinas","['1213, South Main Street, Salinas, Monterey County, California, 93901, United States']",93901
424,McDonald's,36.9076277,-121.7536131,"190 Main St, Watsonville","[""McDonald's, 190, Main Street, Watsonville, Santa Cruz County, California, 95076, United States""]",95076
425,McDonald's,36.6803314,-121.6410139,"155 Kern St, Salinas","['155, Kern Street, Salinas, Monterey County, California, 93905, United States']",93905
426,McDonald's,36.7153144,-121.626007,"600 E Boronda Rd, Salinas","['600, East Boronda Road, Santa Rita, Salinas, Monterey County, California, 93906, United States']",93906
427,McDonald's,36.6727885,-121.6293349,"840 E Alisal St, Salinas","['840, East Alisal Street, Salinas, Monterey County, California, 93905, United States']",93905
428,McDonald's,36.9167973,-121.7757332,"1459 Main St, Watsonville","['1459, Main Street, Watsonville, Santa Cruz County, California, 95076, United States']",95076
429,McDonald's,36.9321618,-121.7696453,"1598 Freedom Blvd, Watsonville","['1598, Freedom Boulevard, Watsonville, Santa Cruz County, California, 95076, United States']",95076
430,McDonald's,36.6083173,-121.856052,"1516 Canyon Del Rey Blvd, Seaside","['1516, Canyon del Rey Boulevard, Del Monte, Seaside, Monterey County, California, 93955, United States']",93955
431,McDonald's,37.0016155,-121.5599683,"6990 Automall Pkwy, Gilroy","['6990, Automall Parkway, Gilroy, Santa Clara County, California, 95020, United States']",95020
432,McDonald's,36.6800873,-121.6056544,"608 Williams Rd, Salinas","['608, Williams Road, Salinas, Monterey County, California, 93905, United States']",93905
433,McDonald's,36.8370658,-121.3891251,"1711 Airline Hwy, Hollister","['Airline Highway, Hollister, San Benito County, California, 95023-7612, United States']",95023-7612
434,McDonald's,36.5140643,-121.4371211,"805 5th St, Gonzales","['805, 5th Street, Gonzales, Monterey County, California, 93926, United States']",93926
435,McDonald's,34.2625738,-119.2370506,"4110 E Main St, Ventura","[""McDonald's, 4110, East Main Street, Ventura, Ventura County, California, 93003, United States""]",93003
436,McDonald's,34.221418,-119.070886,"60 W Daily Dr, Camarillo","['West Daily Drive, Springville, Camarillo, Ventura County, California, 93010, United States']",93010
437,McDonald's,34.2778299,-119.2136684,"5980 Telegraph Rd, Ventura","[""McDonald's, 5980, Telegraph Road, Ventura, Ventura County, California, 93003, United States""]",93003
438,McDonald's,34.2349603,-119.0385845,"1650 Arneill Rd, Camarillo","['Arneill Road, Old Town, Camarillo, Ventura County, California, 93010, United States']",93010
439,McDonald's,34.396815,-119.512362,"1115 Casitas Pass Rd, Carpinteria","['1115, Casitas Pass Road, Carpinteria, Santa Barbara County, California, 93013, United States']",93013
440,McDonald's,34.1712213,-119.1771226,"3120 Saviers Rd, Oxnard","['3120, Saviers Road, Oxnard, Ventura County, California, 93033, United States']",93033
441,McDonald's,34.3464136,-119.0706671,"138 Harvard Blvd, Santa Paula","['138, East Harvard Boulevard, Santa Paula, Ventura County, California, 93060, United States']",93060
442,McDonald's,34.1805301,-119.1651526,"1741 Pacific Ave, Oxnard","['1741, Pacific Avenue, Oxnard, Ventura County, California, 93033, United States']",93033
443,McDonald's,33.740348,-116.216082,"42550 Jackson St, Indio","['Panda Express, 42550, Jackson Street, Indio, Riverside County, California, 92203, United States']",92203
444,McDonald's,34.1366053,-116.0539974,"6455 Adobe Rd, Twentynine Palms","['6455, Adobe Road, Twentynine Palms, San Bernardino County, California, 92277, United States']",92277
445,McDonald's,33.7599877,-116.2979551,"78365 Varner Rd, Palm Desert","['KEZN-FM (Palm Desert), Varner Road, Thousand Palms, Cathedral City, Riverside County, California, 92263, United States']",92263
448,McDonald's,33.8014174,-116.388617,"34101 Monterey Ave, Rancho Mirage","['34101, Monterey Avenue, Rancho Mirage, Riverside County, California, 92270, United States']",92270
449,McDonald's,33.7406911,-116.2284817,"82491 Ave 42, Indio","['Walmart Supercenter, 82491, Avenue 42, Indio, Riverside County, California, 92203, United States']",92203
450,McDonald's,33.74705,-116.9962708,"2321 W Florida Ave, Hemet","['2321, West Florida Avenue, Hemet, Riverside County, California, 92545, United States']",92545
451,McDonald's,33.7949078,-116.9711679,"611 N State St, San Jacinto","['State Street, San Jacinto, Riverside County, California, 92583, United States']",92583
452,McDonald's,33.9455539,-116.5009238,"14280 Palm Dr, Desert Hot Springs","['14280, Palm Drive, Desert Hot Springs, Riverside County, California, 92240, United States']",92240
453,McDonald's,33.8193349,-116.4587553,"31-545 Date Palm Dr, Cathedral City","['Date Palm Drive, Cathedral City, Riverside County, California, 92264-3613, United States']",92264-3613
454,McDonald's,33.8219762,-116.406551,"31250 Bob Hope Dr, Cathedral City","['Bob Hope Drive, Thousand Palms, Cathedral City, Riverside County, California, 92263, United States']",92263
455,McDonald's,33.7879976,-116.4826009,"67555 E Palm Canyon Dr, Cathedral City","['Travelodge by Wyndham Cathedral City, 67495, East Palm Canyon Drive, Cathedral City, Riverside County, California, 92234, United States']",92234
456,McDonald's,33.8008654,-116.5205708,"2465 E Palm Canyon Dr, Palm Springs","['Chipotle Mexican Grill, 2465, East Palm Canyon Drive, Palm Springs, Riverside County, California, 92264, United States']",92264
457,McDonald's,33.7296863,-116.9733553,"290 W Stetson Ave, Hemet","['290, West Stetson Avenue, Hemet, Riverside County, California, 92543, United States']",92543
458,McDonald's,33.844545,-116.526249,"1717 E Vista Chino East, Palm Springs","['1717, East Vista Chino, Palm Springs, Riverside County, California, 92262, United States']",92262
459,McDonald's,37.96682699999999,-121.295414,"1423 N Center St, Stockton","['North Center Street, Stockton, San Joaquin County, California, 95202, United States']",95202
460,McDonald's,37.81139659999999,-121.2911761,"300 E Louise Ave, Lathrop","[""McDonald's, 300, East Louise Avenue, Lathrop, San Joaquin County, California, 95330, United States""]",95330
461,McDonald's,38.023139,-121.32243,"8020 N Lower Sacramento Rd, Stockton","['8020, North Lower Sacramento Road, Stockton, San Joaquin County, California, 95210, United States']",95210
462,McDonald's,38.0216368,-121.2722493,"3355 E Hammer Ln, Stockton","[""McDonald's, 3355, East Hammer Lane, Stockton, San Joaquin County, California, 95212, United States""]",95212
463,McDonald's,37.5407599,-121.2663656,"4561 Howard Rd, Westley","['Howard Road, Westley, Stanislaus County, California, 95387, United States']",95387
464,McDonald's,37.937556,-121.295604,"611 W Charter Way, Stockton","['611, West Charter Way, Stockton, San Joaquin County, California, 95206, United States']",95206
465,McDonald's,37.7389452,-121.4505583,"1820 W 11th St, Tracy","['1820, West 11th Street, West Park, Tracy, San Joaquin County, California, 95376, United States']",95376
466,McDonald's,38.00208,-121.292205,"1049 E March Ln, Stockton","['1049, East March Lane, Akers, Stockton, San Joaquin County, California, 95210, United States']",95210
467,McDonald's,37.949392,-121.2895268,"322 S Center St, Stockton","['South Center Street, The Homestead, Stockton, San Joaquin County, California, 95206, United States']",95206
468,McDonald's,39.9048127,-122.1981315,"3375 Sunrise Way, Corning","['3375, Sunrise Way, Corning, Tehama County, California, 96021, United States']",96021
469,McDonald's,34.0330278,-118.1838249,"3868 E 3rd St, East Los Angeles","['3868, East 3rd Street, Wellington Heights, East Los Angeles, Los Angeles County, California, 90063, United States']",90063
470,McDonald's,34.1190438,-118.1928237,"5725 York Blvd, Highland Park","['5725, York Boulevard, Highland Park, Los Angeles, Los Angeles County, California, 90042, United States']",90042
472,McDonald's,34.1514229,-118.0267346,"143 E Foothill Blvd, Arcadia","['143, East Foothill Boulevard, Arcadia, Los Angeles County, California, 91006, United States']",91006
473,McDonald's,33.9256505,-118.2386774,"11800 Wilmington Ave, Los Angeles","['11800, Wilmington Avenue, Willowbrook, Carson, Los Angeles County, California, 90059, United States']",90059
474,McDonald's,33.928759,-118.147949,"12256 Paramount Blvd, Downey","[""McDonald's, 12256, Paramount Boulevard, Downey, Los Angeles County, California, 90242, United States""]",90242
475,McDonald's,34.07057220000001,-118.2682112,"405 N Alvarado St, Los Angeles","['Alvarado Street, Westlake, Los Angeles, Los Angeles County, California, 90006-5010, United States']",90006-5010
476,McDonald's,36.765596,-119.73605,"4803 E McKinley Ave, Fresno","['4803, East McKinley Avenue, Fresno, Fresno County, California, 93703, United States']",93703
477,McDonald's,36.792936,-119.699592,"5608 E Ashlan Ave, Fresno","[""McDonald's, 5608, East Ashlan Avenue, Tarpey Village, Fresno County, California, 93727, United States""]",93727
478,McDonald's,36.8516427,-119.7730235,"669 E Nees Ave, Fresno","['669, East Nees Avenue, Fresno, Fresno County, California, 93720, United States']",93720
479,McDonald's,36.735556,-119.732212,"4898 E Kings Canyon Rd, Fresno","[""McDonald's, 4898, East Kings Canyon Road, Fresno, Fresno County, California, 93727, United States""]",93727
480,McDonald's,36.7361802,-119.7493977,"4505 E Kings Canyon Rd, Fresno","['4505, East Kings Canyon Road, Fresno, Fresno County, California, 93702, United States']",93702
481,McDonald's,36.835826,-119.9129176,"6741 N Riverside Dr, Fresno","['North Riverside Drive, Herndon, Fresno, Fresno County, California, 93722, United States']",93722
482,McDonald's,36.95255849999999,-120.075623,"1500 Howard Rd, Madera","['1500, Howard Road, Madera, Madera County, California, 93637, United States']",93637
483,McDonald's,36.8089089,-119.7824308,"368 E Shaw Ave, Fresno","['368, East Shaw Avenue, Fresno, Fresno County, California, 93710, United States']",93710
484,McDonald's,37.3890037,-120.7376937,"381 Joseph Gallo Dr, Livingston","['Chevron, 381, Joseph Gallo Drive, Livingston, Merced County, California, 95334, United States']",95334
485,McDonald's,37.3179538,-120.5019942,"3055 Loughborough Dr, Merced","['Walmart, 3055, Loughborough Drive, Merced, Merced County, California, 95348, United States']",95348
486,McDonald's,36.7789048,-119.7908787,"3115 N Blackstone Ave, Fresno","['3115, North Blackstone Avenue, Fresno, Fresno County, California, 93703, United States']",93703
487,McDonald's,36.8077998,-119.8498636,"3237 W Shaw Ave, Fresno","['3237, West Shaw Avenue, Fresno, Fresno County, California, 93711, United States']",93711
488,McDonald's,36.7864571,-119.7554793,"4176 E Dakota Ave, Fresno","['4176, East Dakota Avenue, Fresno, Fresno County, California, 93726, United States']",93726
489,McDonald's,36.808925,-119.718771,"417 W Shaw Ave, Clovis","['417, West Shaw Avenue, Clovis, Fresno County, California, 93612, United States']",93612
490,McDonald's,36.82044700000001,-119.789949,"5666 N Blackstone Ave, Fresno","['5666, North Blackstone Avenue, Fresno, Fresno County, California, 93710, United States']",93710
491,McDonald's,36.743533,-119.789776,"1739 Divisadero St, Fresno","['1739, Divisadero Street, Fresno, Fresno County, California, 93701, United States']",93701
492,McDonald's,33.0455865,-117.261495,"1271 Encinitas Blvd, Encinitas","['1271, Encinitas Boulevard, Encinitas, San Diego County, California, 92024, United States']",92024
493,McDonald's,32.7428852,-117.0438068,"7164 Broadway, Lemon Grove","[""McDonald's, 7164, Broadway, Lemon Grove, San Diego County, California, 91945, United States""]",91945
494,McDonald's,32.915426,-117.1302953,"9035 Mira Mesa Blvd, San Diego","[""McDonald's, 9035, Mira Mesa Boulevard, Mira Mesa, San Diego, San Diego County, California, 92126, United States""]",92126
495,McDonald's,32.693033,-117.134436,"2796 Main St, San Diego","['2796, Main Street, Otay, Chula Vista, San Diego County, California, 91911, United States']",91911
496,McDonald's,32.9526839,-117.059691,"12510 Poway Rd, Poway","['12510, Poway Road, La Paz Village, Ipai Waaypuk, Poway, San Diego County, California, 92064, United States']",92064
497,McDonald's,32.9803622,-117.249595,"2705 Via De La Valle, Del Mar","[""McDonald's, 2705, Via de la Valle, San Diego, Del Mar, San Diego County, California, 92014, United States""]",92014
498,McDonald's,32.9366902,-117.0981364,"10655 Scripps Poway Pkwy, San Diego","[""McDonald's, 10655, Scripps Poway Parkway, San Diego, San Diego County, California, 92131, United States""]",92131
499,McDonald's,38.4089116,-121.4766019,"2733 Elk Grove Blvd, Elk Grove","['Ora Dentistry, 2733, Elk Grove Boulevard, Elk Grove, Sacramento County, California, 95757, United States']",95757
500,McDonald's,38.49607710000001,-121.4844737,"2335 Florin Rd, Sacramento","['2335, Florin Road, Sacramento, Sacramento County, California, 95822, United States']",95822
501,McDonald's,38.495706,-121.4575844,"4124 Florin Rd, Sacramento","['4124, Florin Road, Parkway-South Sacramento, Parkway, Elk Grove, Sacramento County, California, 95823, United States']",95823
502,McDonald's,38.4748318,-121.4470974,"4731 Mack Rd, Sacramento","[""McDonald's, 4731, Mack Road, Sacramento, Sacramento County, California, 95823, United States""]",95823
503,McDonald's,38.4576415,-121.8416518,"1410 Ary Ln, Dixon","[""McDonald's, 1410, Ary Lane, Dixon, Solano County, California, 95620, United States""]",95620
504,McDonald's,38.5955118,-121.384694,"3412 Arden Way, Sacramento","[""McDonald's, 3412, Arden Way, Arden-Arcade, Sacramento County, California, 95825-2014, United States""]",95825-2014
505,McDonald's,33.986859,-118.185949,"5901 Atlantic Blvd, Maywood","['5901, Atlantic Boulevard, Maywood, Los Angeles County, California, 90270, United States']",90270
506,McDonald's,38.9299719,-122.6172441,"15940 Dam Rd, Clearlake","[""McDonald's, 15940, Dam Road, Clearlake, Lake County, California, 95422, United States""]",95422
507,McDonald's,39.15200530000001,-123.1986932,"115 N Orchard Ave, Ukiah","['115, North Orchard Avenue, Wagenseller, Ukiah, Mendocino County, California, 95482, United States']",95482
508,McDonald's,39.0323122,-122.9243861,"1077 Lakeport Blvd, Lakeport","['Lakeport Boulevard, Lakeport, Lake County, California, 95453, United States']",95453
509,McDonald's,38.7841043,-123.0132113,"1149 S Cloverdale Blvd, Cloverdale","['1149, South Cloverdale Boulevard, Ioli Ranch, Cloverdale, Sonoma County, California, 95425, United States']",95425
510,McDonald's,38.413534,-122.713041,"2642 Santa Rosa Ave, Santa Rosa","[""McDonald's, 2642, Santa Rosa Avenue, Santa Rosa, Sonoma County, California, 95407, United States""]",95407
511,McDonald's,39.167987,-123.211825,"1310 N State St, Ukiah","['1310, North State Street, North Ukiah, Ukiah, Mendocino County, California, 95482, United States']",95482
512,McDonald's,36.838259,-119.847943,"7035 N Marks Ave, Fresno","['7035, North Marks Avenue, Fresno, Fresno County, California, 93711, United States']",93711
513,McDonald's,36.8367094,-119.753699,"6768 N Cedar Ave, Fresno","['6768, North Cedar Avenue, Fresno, Fresno County, California, 93710, United States']",93710
514,McDonald's,36.83759149999999,-119.8024113,"7025 N Ingram Ave, Fresno","['7025, North Ingram Avenue, Fresno, Fresno County, California, 93650, United States']",93650
515,McDonald's,36.80813699999999,-119.756676,"1695 E Shaw Ave, Fresno","['1695, East Shaw Avenue, Fresno, Fresno County, California, 93710, United States']",93710
516,McDonald's,36.7377701,-119.721058,"5125 E Kings Canyon Rd, Fresno","['Walmart Supercenter, 5125, East Kings Canyon Road, Fresno, Fresno County, California, 93727, United States']",93727
517,McDonald's,36.5175056,-119.5620245,"520 Sierra St, Kingsburg","['520, Sierra Street, Kingsburg, Fresno County, California, 93631, United States']",93631
518,McDonald's,33.7000324,-116.2143374,"83131 Ave 48, Coachella","[""McDonald's, 83131, Avenue 48, Coachella, Riverside County, California, 92236, United States""]",92236
520,McDonald's,33.683868,-116.180943,"50090 Harrison St, Coachella","[""McDonald's, 50090, Cesar Chavez Street, Coachella, Riverside County, California, 92236, United States""]",92236
521,McDonald's,33.70985580000001,-116.2883198,"79-225 CA-111, La Quinta","['CA 111, La Quinta, Indian Wells, Riverside County, California, 92235, United States']",92235
522,McDonald's,38.6833951,-121.4562411,"400 Elkhorn Blvd, Rio Linda","['400, Elkhorn Boulevard, Rio Linda, Sacramento County, California, 95673, United States']",95673
523,McDonald's,38.7962371,-121.3147994,"1400 Blue Oaks Blvd, Roseville","['1400, Blue Oaks Boulevard, Roseville, Placer County, California, 95678, United States']",95678
524,McDonald's,38.6716827,-121.161728,"697 E Bidwell St, Folsom","['697, East Bidwell Street, Folsom, Sacramento County, California, 95630, United States']",95630
525,McDonald's,38.6867871,-121.3415595,"5301 Elkhorn Blvd, Sacramento","[""McDonald's, 5301, Elkhorn Boulevard, Sacramento County, California, 95842, United States""]",95842
527,McDonald's,38.7501488,-121.3098344,"3994 Foothills Blvd, Roseville","[""McDonald's, 3994, Foothills Boulevard, Roseville, Placer County, California, 95678, United States""]",95678
528,McDonald's,38.6579188,-120.9709313,"3356 Coach Ln, Cameron Park","['3356, Coach Lane, Cameron Park, El Dorado County, California, 95682, United States']",95682
529,McDonald's,38.6549007,-121.3833593,"4957 Watt Ave, North Highlands","['North Highlands Post Office, Watt Avenue, Sacramento County, California, 95652, United States']",95652
530,McDonald's,38.654845,-121.124461,"2757 E Bidwell St, Folsom","['2757, East Bidwell Street, Broadstone Plaza, Folsom, Sacramento County, California, 95630, United States']",95630
531,McDonald's,38.6649245,-121.27162,"5402 Sunrise Blvd, Citrus Heights","['5402, Sunrise Boulevard, Citrus Heights, Sacramento County, California, 95610, United States']",95610
532,McDonald's,38.6899059,-121.3834068,"6749 Watt Ave, North Highlands","['North Highlands Post Office, Watt Avenue, Sacramento County, California, 95652, United States']",95652
533,McDonald's,34.0734007,-117.9072261,"100 N Azusa Ave, West Covina","['100, North Azusa Avenue, City of Industry, West Covina, Los Angeles County, California, 91744, United States']",91744
535,McDonald's,33.8775284,-117.9619861,"1891 W Malvern Ave, Fullerton","['West Malvern Avenue, Fullerton, Orange County, California, 92832, United States']",92832
536,McDonald's,33.8894102,-118.3519399,"15606 Hawthorne Blvd, Lawndale","['15606, Hawthorne Boulevard, Lawndale, Los Angeles County, California, 90260, United States']",90260
537,McDonald's,33.9161585,-118.3473857,"4160 W El Segundo Blvd, Hawthorne","['4160, West El Segundo Boulevard, Hawthorne, Los Angeles County, California, 90250, United States']",90250
538,McDonald's,33.9157871,-118.396641,"101 S Sepulveda Blvd, El Segundo","['Pacific Coast Highway, El Segundo, Los Angeles County, California, 90245, United States']",90245
539,McDonald's,37.975928,-122.547018,"2114 4th St, San Rafael","['2114, Fourth Street, San Rafael, Marin County, California, 94901, United States']",94901
540,McDonald's,37.9960773,-122.3049525,"1402 Tara Hills Dr, Pinole","['1402, Tara Hills Drive, Pinole, Contra Costa County, California, 94564, United States']",94564
541,McDonald's,38.0087594,-122.2713096,"1570 Sycamore Ave, Hercules","['1570, Sycamore Avenue, Hercules, Contra Costa County, California, 94547, United States']",94547
542,McDonald's,38.0562427,-122.1507374,"1602 E 2nd St, Benicia","['1602, East 2nd Street, Benicia, Solano County, California, 94510, United States']",94510
543,McDonald's,38.10562,-122.209611,"2565 Springs Rd, Vallejo","[""McDonald's, 2565, Springs Road, Vallejo, Solano County, California, 94591, United States""]",94591
544,McDonald's,37.9964114,-122.5346171,"190 Merrydale Rd, San Rafael","[""McDonald's, 190, Merrydale Road, Cerro, San Rafael, Marin County, California, 94903, United States""]",94903
545,McDonald's,38.0818281,-122.1934389,"2110 Columbus Pkwy, Benicia","[""McDonald's, 2110, Columbus Parkway, Benicia, Solano County, California, 94510, United States""]",94510
546,McDonald's,38.0844029,-122.2318194,"170 Lincoln Rd E, Vallejo","['170, Lincoln Road East, Carquinez Heights, Vallejo, Solano County, California, 94591, United States']",94591
547,McDonald's,38.119161,-122.255518,"3289 Sonoma Blvd, Vallejo","[""McDonald's, 3289, Sonoma Boulevard, Vallejo, Solano County, California, 94590, United States""]",94590
548,McDonald's,38.0613919,-122.5321745,"5600 Nave Dr, Novato","['5600, Nave Drive, Novato, Marin County, California, 94949, United States']",94949
550,McDonald's,41.7553406,-124.1935026,"380 M St, Crescent City","['M Street, Crescent City, Del Norte County, California, 95531-4416, United States']",95531-4416
551,McDonald's,33.874303,-117.997819,"5900 Beach Blvd, Buena Park","['5900, Beach Boulevard, Buena Park, Orange County, California, 90621, United States']",90621
552,McDonald's,33.911396,-117.866642,"2505 E Imperial Hwy, Brea","['2505, East Imperial Highway, Brea, Orange County, California, 92821, United States']",92821
553,McDonald's,33.802771,-118.070621,"3562 Katella Ave, Los Alamitos","['Katella Avenue, Los Alamitos, Orange County, California, 90702, United States']",90702
554,McDonald's,33.8873373,-118.1423222,"16208 Lakewood Blvd, Bellflower","['16208, Lakewood Boulevard, Bellflower, Los Angeles County, California, 90706, United States']",90706
555,McDonald's,38.386147,-121.9330309,"817 Leisure Town Rd, Vacaville","['817, Leisure Town Road, Vacaville, Solano County, California, 95687, United States']",95687
556,McDonald's,38.3356434,-121.9535902,"3101 Alamo Dr, Vacaville","['3101, Alamo Drive, Vacaville, Solano County, California, 95687, United States']",95687
557,McDonald's,38.351834,-121.985321,"541 Davis St, Vacaville","['541, Davis Street, Vacaville, Solano County, California, 95687, United States']",95687
558,McDonald's,38.3612529,-121.972315,"1310 E Monte Vista Ave, Vacaville","[""McDonald's, 1310, East Monte Vista Avenue, Vacaville, Solano County, California, 95688, United States""]",95688
559,McDonald's,38.342156,-121.994608,"990 Alamo Dr, Vacaville","[""McDonald's, 990, Alamo Drive, Vacaville, Solano County, California, 95687, United States""]",95687
560,McDonald's,38.3931257,-121.4168651,"10051 Bruceville Rd, Elk Grove","['10051, Bruceville Road, Elk Grove, Sacramento County, California, 95757, United States']",95757
562,McDonald's,37.0085217,-121.5510939,"7150 Camino Arroyo, Gilroy","['Walmart Supercenter, 7150, Camino Arroyo, Pacheco Pass Center, Gilroy, Santa Clara County, California, 95020, United States']",95020
563,McDonald's,37.0138082,-121.5863532,"797 1st St, Gilroy","['797, 1st Street, Gilroy, Santa Clara County, California, 95020, United States']",95020
564,McDonald's,37.02363920000001,-121.5624516,"8390 Arroyo Cir, Gilroy","[""McDonald's, 8390, Arroyo Circle, Gilroy, Santa Clara County, California, 95020, United States""]",95020
565,McDonald's,36.4183255,-121.3213965,"1215 Front St, Soledad","['1215, Front Street, Soledad, Monterey County, California, 93960, United States']",93960
566,McDonald's,35.77631179999999,-119.2466354,"907 Cecil Ave, Delano","['907, Cecil Avenue, Delano, Kern County, California, 93215, United States']",93215
567,McDonald's,36.1970674,-119.3273646,"1310 E Bardsley Ave, Tulare","['1310, East Bardsley Avenue, Tulare, Tulare County, California, 93274, United States']",93274
568,McDonald's,33.9457098,-118.3085999,"1763 W Century Blvd, Los Angeles","['1763, West Century Boulevard, Gramercy Park, Los Angeles, Los Angeles County, California, 90047, United States']",90047
569,McDonald's,34.0886817,-118.3096721,"1007 N Western Ave, Los Angeles","['Western Avenue, East Hollywood, Los Angeles, Los Angeles County, California, 90029-3737, United States']",90029-3737
570,McDonald's,36.297718,-119.313115,"3636 S Mooney Blvd, Visalia","['South Mooney Boulevard, Visalia, Tulare County, California, 93291, United States']",93291
571,McDonald's,36.3252175,-119.2765743,"1401 E Noble Ave, Visalia","['1401, East Noble Avenue, Visalia, Tulare County, California, 93292, United States']",93292
572,McDonald's,36.837932,-119.698494,"1055 Herndon Ave, Clovis","['1055, Herndon Avenue, Clovis, Fresno County, California, 93612, United States']",93612
573,McDonald's,38.0054117,-121.7520902,"914 Main St, Oakley","['Main Street, Oakley, Contra Costa County, California, 94561, United States']",94561
574,McDonald's,38.0209875,-121.9423581,"220 Bailey Rd, Bay Point","['220, Bailey Road, Bay Point, Contra Costa County, California, 94565, United States']",94565
575,McDonald's,38.0036974,-121.8345025,"2424 Mahogany Way, Antioch","['2424, Mahogany Way, Antioch, Contra Costa County, California, 94509, United States']",94509
576,McDonald's,38.009338,-121.8685736,"2203 Loveridge Rd, Pittsburg","['Walmart, 2203, Loveridge Road, Pittsburg, Contra Costa County, California, 94565, United States']",94565
579,McDonald's,37.0543666,-120.8798654,"1575 W Pacheco Blvd, Los Banos","['Walmart Supercenter, 1575, West Pacheco Boulevard, Los Banos, Merced County, California, 93635, United States']",93635
580,McDonald's,37.0575337,-120.878893,"1500 W Pacheco Blvd, Los Banos","['West Pacheco Boulevard, Los Banos, Merced County, California, 93635, United States']",93635
581,McDonald's,37.3609842,-120.5954781,"2720 Shaffer Rd, Atwater","[""McDonald's, 2720, Shaffer Road, Atwater, Merced County, California, 95301, United States""]",95301
582,McDonald's,37.2593754,-120.999798,"430 1st Ave, Gustine","[""McDonald's, 430, 1st Avenue, Gustine, Merced County, California, 95322, United States""]",95322
583,McDonald's,37.3187045,-120.4734586,"206 W Olive Ave, Merced","[""McDonald's, 206, West Olive Avenue, Merced, Merced County, California, 95348, United States""]",95348
584,McDonald's,37.4040324,-120.849557,"7960 Lander Ave, Hilmar","['7960, Lander Avenue, Irwin, Hilmar, Merced County, California, 95324, United States']",95324
585,McDonald's,36.75023910000001,-120.3874912,"750 Derrick Ave, Mendota","['Derrick Avenue, Mendota, Fresno County, California, 93640, United States']",93640
586,McDonald's,36.974161,-120.083955,"2290 W Cleveland Ave, Madera","['2290, West Cleveland Avenue, Madera, Madera County, California, 93637, United States']",93637
587,McDonald's,36.6390573,-120.6262177,"46330 W Panoche Rd, Firebaugh","['Chevron, 46330, West Panoche Road, Fresno County, California, 93622, United States']",93622
588,McDonald's,36.735177,-120.061229,"15100 W Whitesbridge Ave, Kerman","['West Whitesbridge Avenue, Kerman, Fresno County, California, 93706, United States']",93706
589,McDonald's,41.39761499999999,-122.379612,"1925 Shastina Dr, Weed","[""McDonald's, 1925, Shastina Drive, Weed, Siskiyou County, California, 96094, United States""]",96094
590,McDonald's,34.1352977,-118.0511756,"400 S Baldwin Ave, Arcadia","['Baldwin Avenue, West Arcadia, Arcadia, Los Angeles County, California, 91007-7922, United States']",91007-7922
591,McDonald's,37.9887915,-121.7859533,"3450 Deer Valley Rd, Antioch","['Deer Valley Road, Antioch, Contra Costa County, California, 94531, United States']",94531
592,McDonald's,37.9629605,-121.7621448,"4893 Lone Tree Wy, Antioch","['Walmart Supercenter, 4893, Lone Tree Way, Antioch, Contra Costa County, California, 94531, United States']",94531
593,McDonald's,37.9665434,-121.7828257,"4440 Lone Tree Wy, Antioch","['Lone Tree Way, Antioch, Contra Costa County, California, 94531, United States']",94531
594,McDonald's,38.129925,-121.275818,"200 W Lodi Ave, Lodi","['West Lodi Avenue, Lodi, San Joaquin County, California, 95241, United States']",95241
595,McDonald's,41.7026576,-122.6448917,"1806 Fort Jones Rd, Yreka","['1806, Fort Jones Road, Yreka, Siskiyou County, California, 96097, United States']",96097
596,McDonald's,36.7363219,-119.6975416,"5645 E Kings Canyon Rd, Fresno","['5645, East Kings Canyon Road, Fresno, Fresno County, California, 93727, United States']",93727
597,McDonald's,36.6267897,-119.6829218,"327 W Merced St, Fowler","['327, West Merced Street, Fowler, Fresno County, California, 93625, United States']",93625
598,McDonald's,36.6036504,-119.4582238,"835 N Reed Ave, Reedley","['835, North Reed Avenue, Reedley, Fresno County, California, 93654, United States']",93654
599,McDonald's,36.35717169999999,-119.2966009,"3102 N Dinuba Blvd, Visalia","['North Dinuba Boulevard, Visalia, Tulare County, California, 93291, United States']",93291
600,McDonald's,36.3125974,-119.3487927,"5215 W Walnut Ave, Visalia","['5215, West Walnut Avenue, Visalia, Tulare County, California, 93277, United States']",93277
601,McDonald's,36.341392,-119.349072,"5205 W Goshen Ave, Visalia","['West Goshen Avenue, Visalia, Tulare County, California, 93227, United States']",93227
602,McDonald's,36.3279684,-119.3314006,"3636 W Mineral King Ave, Visalia","['3636, West Mineral King Avenue, Visalia, Tulare County, California, 93291, United States']",93291
603,McDonald's,36.5438555,-119.401785,"700 W El Monte Way, Dinuba","['West El Monte Way, Dinuba, Tulare County, California, 93618, United States']",93618
604,McDonald's,36.2132858,-119.3486191,"108 E Cross Ave, Tulare","['108, East Cross Avenue, Tulare, Tulare County, California, 93274, United States']",93274
605,McDonald's,36.3258506,-119.2100903,"430 Avenue 295, Farmersville","['Avenue 295, Farmersville, Tulare County, California, 93233, United States']",93233
606,McDonald's,36.576711,-119.626045,"2790 Floral Ave, Selma","['2790, Floral Avenue, Selma, Fresno County, California, 93662, United States']",93662
607,McDonald's,35.8922355,-119.2713694,"975 N Earlimart Ave, Earlimart","['975, North Earlimart Avenue, Earlimart, Tulare County, California, 93219, United States']",93219
608,McDonald's,36.1809347,-119.3299744,"2710 S Blackstone St, Tulare","['South Blackstone Street, Tulare, Tulare County, California, 93274, United States']",93274
609,McDonald's,36.705587,-119.577721,"2761 Jensen Ave, Sanger","['Walmart Supercenter, 2761, Jensen Avenue, Sanger, Fresno County, California, 93657, United States']",93657
610,McDonald's,37.9547368,-122.0420609,"1691 Monument Blvd, Concord","['1691, Monument Boulevard, Palm Terrace Appartments, Concord, Contra Costa County, California, 94520, United States']",94520
611,McDonald's,37.973176,-122.0645188,"624 Contra Costa Blvd, Pleasant Hill","['624, Contra Costa Boulevard, College Park Center, Pleasant Hill, Contra Costa County, California, 94523, United States']",94523
612,McDonald's,37.892388,-122.114001,"3459 Mt Diablo Blvd, Lafayette","['3459, Mount Diablo Boulevard, Lafayette, Contra Costa County, California, 94549, United States']",94549
613,McDonald's,36.5432528,-119.2863628,"41536 Rd 128, Orosi","['Road 128, Orosi, Tulare County, California, 93647, United States']",93647
614,McDonald's,34.4050941,-118.4647293,"26940 Sierra Hwy, Santa Clarita","['26940, Sierra Highway, Santa Clarita, Los Angeles County, California, 91321, United States']",91321
615,McDonald's,34.02599360000001,-118.4315177,"11300 National Blvd, Los Angeles","['11300, National Boulevard, Mar Vista, Los Angeles, Los Angeles County, California, 90064, United States']",90064
616,McDonald's,33.9812233,-118.4393401,"4680 Lincoln Blvd, Los Angeles","['4680, Lincoln Boulevard, Del Rey, Los Angeles, Los Angeles County, California, 90292, United States']",90292
617,McDonald's,34.2169058,-118.3881106,"8045 Lankershim Blvd, North Hollywood","['North Hollywood, Lankershim Boulevard, NoHo, North Hollywood, Los Angeles, Los Angeles County, California, 91601-3121, United States']",91601-3121
618,McDonald's,34.198872,-118.4491875,"7045 Van Nuys Blvd, Van Nuys","['7045, Van Nuys Boulevard, Van Nuys, Los Angeles, Los Angeles County, California, 91405, United States']",91405
619,McDonald's,34.1850843,-118.3871685,"6309 Lankershim Blvd, North Hollywood","['6309, Lankershim Boulevard, North Hollywood, Los Angeles, Los Angeles County, California, 91606, United States']",91606
620,McDonald's,36.9719166,-120.0451726,"1406 W Yosemite Ave, Madera","['West Yosemite Avenue, Madera, Madera County, California, 93637, United States']",93637
621,McDonald's,38.4813883,-121.4072459,"8140 Gerber Rd, Sacramento","[""McDonald's, 8140, Gerber Road, Elk Grove, Sacramento County, California, 95828, United States""]",95828
622,McDonald's,33.8028911,-117.8886277,"1810 S State College Blvd, Anaheim","['1810, South State College Boulevard, Anaheim Resort District, Anaheim, Orange County, California, 92806, United States']",92806
623,McDonald's,34.0313211,-117.9153558,"2501 S Azusa Ave, West Covina","['2501, South Azusa Avenue, Hacienda Heights, West Covina, El Monte, Los Angeles County, California, 91745, United States']",91745
625,McDonald's,39.3946034,-123.3495355,"1488 S Main St, Willits","['South Main Street, Willits, Mendocino County, California, 95490, United States']",95490
626,McDonald's,39.4239709,-123.8069104,"1190 S Main St, Fort Bragg","['1190, South Main Street, Noyo, Fort Bragg, Mendocino County, California, 95437, United States']",95437
628,McDonald's,37.92580030000001,-121.7363805,"2351 Balfour Rd, Brentwood","['2351, Balfour Road, Brentwood, Contra Costa County, California, 94513, United States']",94513
629,McDonald's,37.4344581,-121.9013599,"99 N Milpitas Blvd, Milpitas","['99, North Milpitas Boulevard, Milpitas, Santa Clara County, California, 95035, United States']",95035
630,McDonald's,37.4271376,-121.9217764,"41 Ranch Dr, Milpitas","[""McDonald's, 41, Ranch Drive, Milpitas, Santa Clara County, California, 95035-5119, United States""]",95035-5119
631,McDonald's,37.2438457,-121.9598446,"15475 Los Gatos Blvd, Los Gatos","['15475, Los Gatos Boulevard, Los Gatos, Santa Clara County, California, 95032, United States']",95032
632,McDonald's,37.29183630000001,-121.9968036,"18578 Prospect Rd, Saratoga","['McDonalds, 18578, Prospect Road, Saratoga, Santa Clara County, California, 95070, United States']",95070
633,McDonald's,34.424005,-119.288557,"11444 N Ventura Ave, Ojai","['North Ventura Avenue, Matilija, Ojai, Ventura County, California, 93023, United States']",93023
634,McDonald's,36.3267864,-121.249048,"501 El Camino Real, Greenfield","['501, El Camino Real, Greenfield, Monterey County, California, 93927, United States']",93927
635,McDonald's,36.2024773,-121.1361362,"1350 Broadway Cir, King City","['Broadway Circle, King City, Monterey County, California, 93930, United States']",93930
636,McDonald's,36.8589614,-121.4012842,"151 San Felipe Rd, Hollister","[""McDonald's, 151, San Felipe Road, Cottage Corners, Hollister, San Benito County, California, 95023-3029, United States""]",95023-3029
637,McDonald's,38.8047,-121.2737136,"2172 Sunset Blvd, Rocklin","['2172, Sunset Boulevard, Rocklin, Placer County, California, 95765, United States']",95765
638,McDonald's,39.0940874,-120.9513141,"501 S Auburn St, Colfax","['501, South Auburn Street, Colfax, Placer County, California, 95713, United States']",95713
639,McDonald's,38.941821,-121.0959523,"2865 Bell Rd, Auburn","['Briar Patch - Auburn, Bell Road, Placer County, California, 95603, United States']",95603
640,McDonald's,39.2373587,-121.0378186,"11954 Nevada City Hwy, Grass Valley","['Nevada City Highway, Glenbrook, Grass Valley, Nevada County, California, 95954, United States']",95954
641,McDonald's,38.8072227,-121.2049725,"4211 Sierra College Blvd, Rocklin","['4211, Sierra College Boulevard, Loomis, Rocklin, Placer County, California, 95677, United States']",95677
642,McDonald's,38.922352,-121.055976,"13370 Lincoln Way, Auburn","['13370, Lincoln Way, Auburn, Placer County, California, 95603, United States']",95603
644,McDonald's,38.8753612,-121.2964558,"505 CA-65, Lincoln","['505, Lincoln Boulevard, Lincoln, Placer County, California, 95648, United States']",95648
645,McDonald's,36.706472,-119.771254,"3110 E Jensen Ave, Fresno","['3110, East Jensen Avenue, Fresno, Fresno County, California, 93706, United States']",93706
646,McDonald's,36.7586769,-119.7901408,"1248 N Blackstone Ave, Fresno","['North Blackstone Avenue, Fresno, Fresno County, California, 93701, United States']",93701
647,McDonald's,36.757883,-119.832049,"1718 W Olive Ave, Fresno","['1718, West Olive Avenue, Fresno, Fresno County, California, 93728, United States']",93728
648,McDonald's,38.3356645,-122.6766899,"1702 E Cotati Ave, Rohnert Park","[""McDonald's, 1702, East Cotati Avenue, M Section, Rohnert Park, Sonoma County, California, 94928, United States""]",94928
649,McDonald's,34.1065083,-117.6494596,"100 E Foothill Blvd, Upland","['100, East Foothill Boulevard, Upland, San Bernardino County, California, 91786, United States']",91786
650,McDonald's,34.033437,-117.629804,"1170 E Philadelphia St, Ontario","['1170, East Philadelphia Street, Ontario, San Bernardino County, California, 91761, United States']",91761
651,McDonald's,34.001056,-117.7223061,"3770 Grand Ave, Chino","['3770, Grand Avenue, Chino, San Bernardino County, California, 91710, United States']",91710
652,McDonald's,34.106525,-117.680623,"1590 Foothill Blvd, Upland","[""McDonald's, 1590, Foothill Boulevard, Upland, San Bernardino County, California, 91786, United States""]",91786
653,McDonald's,37.2751566,-121.8652533,"715 Capitol Expressway Auto Mall, San Jose","['715, Capitol Expressway Auto Mall, Branham, San Jose, Santa Clara County, California, 95136, United States']",95136
654,McDonald's,37.2455772,-121.888203,"1365 Blossom Hill Rd, San Jose","[""McDonald's, 1365, Blossom Hill Road, San Jose, Santa Clara County, California, 95118, United States""]",95118
655,McDonald's,37.2620801,-121.9220163,"1869 Camden Ave, San Jose","[""McDonald's, 1869, Camden Avenue, San Jose, Santa Clara County, California, 95124, United States""]",95124
656,McDonald's,37.3009345,-121.7723522,"4838 San Felipe Rd, San Jose","[""McDonald's, 4838, San Felipe Road, Evergreen, San Jose, Santa Clara County, California, 95135, United States""]",95135
657,McDonald's,37.2608708,-121.8758937,"4800 Almaden Expy, San Jose","[""McDonald's, 4800, Almaden Expressway, Branham, San Jose, Santa Clara County, California, 95118, United States""]",95118
658,McDonald's,37.250943,-121.831873,"456 Blossom Hill Rd, San Jose","['McDonalds, 456, Blossom Hill Road, Parkview, San Jose, Santa Clara County, California, 95123, United States']",95123
659,McDonald's,37.1506177,-121.6552618,"135 Cochrane Plaza, Morgan Hill","['Cochrane Plaza Shopping Center, Morgan Hill, Santa Clara County, California, United States']",California
660,McDonald's,37.133219,-121.631335,"17025 Condit Rd, Morgan Hill","['17025, Condit Road, Morgan Hill, Santa Clara County, California, 95037, United States']",95037
661,McDonald's,37.231658,-121.773251,"105 Bernal Rd, San Jose","[""McDonald's, 105, Bernal Road, San Jose, Santa Clara County, California, 95119, United States""]",95119
662,McDonald's,37.2546115,-121.7998137,"5508 Monterey Rd, San Jose","[""McDonald's, 5508, Monterey Road, San Jose, Santa Clara County, California, 95138, United States""]",95138
663,McDonald's,37.2664285,-121.8322662,"163 Branham Ln, San Jose","['163, Branham Lane, Parkview, San Jose, Santa Clara County, California, 95136, United States']",95136
664,McDonald's,32.6404251,-117.0985722,"725 E St, Chula Vista","[""McDonald's, 725, E Street, Chula Vista, San Diego County, California, 91910, United States""]",91910
665,McDonald's,32.647165,-116.966738,"2254 Otay Lakes Rd, Chula Vista","[""McDonald's, 2254, Otay Lakes Road, Eastlake Greens, Chula Vista, San Diego County, California, 91913, United States""]",91913
666,McDonald's,32.8804286,-117.159597,"7140 Miramar Rd, San Diego","['7140, Miramar Road, San Diego, San Diego County, California, 92126, United States']",92126
667,McDonald's,32.6269561,-117.0874542,"619 Broadway, Chula Vista","['619, Broadway, Chula Vista, San Diego County, California, 91910, United States']",91910
668,McDonald's,37.9942244,-122.1009551,"1185 Arnold Dr, Martinez","['1185, Arnold Drive, Village Oaks Shopping Center, Martinez, Contra Costa County, California, 94553, United States']",94553
670,McDonald's,37.96653,-122.060827,"107 Sun Valley Mall, Concord","['Sun Valley Mall, College Park, Concord, Pleasant Hill, Contra Costa County, California, 94523, United States']",94523
671,McDonald's,37.7743639,-121.9765951,"2481 San Ramon Valley Blvd, San Ramon","['2481, San Ramon Valley Boulevard, San Ramon, Contra Costa County, California, 94583, United States']",94583
672,McDonald's,37.953539,-122.059752,"1690 Contra Costa Blvd, Pleasant Hill","[""McDonald's, 1690, Contra Costa Boulevard, Ellinwood, Pleasant Hill, Contra Costa County, California, 94523, United States""]",94523
673,McDonald's,38.634506,-121.3286982,"7329 Fair Oaks Blvd, Carmichael","['Fair Oaks Boulevard, Carmichael, Sacramento County, California, 95609-0579, United States']",95609-0579
674,McDonald's,34.02610130000001,-118.2769404,"2810 S Figueroa St, Los Angeles","['South Figueroa Street, Harbor Gateway, Los Angeles, Los Angeles County, California, 90248, United States']",90248
676,McDonald's,34.0599437,-118.3094998,"695 S Western Ave, Los Angeles","['695, South Western Avenue, Koreatown, Los Angeles, Los Angeles County, California, 90005, United States']",90005
677,McDonald's,34.0977918,-118.3089271,"5450 Sunset Blvd, Los Angeles","['Sunset Blvd., Van Nuys, Los Angeles, Los Angeles County, California, 91406-1232, United States']",91406-1232
678,McDonald's,33.846284,-118.115973,"4848 Woodruff Ave, Lakewood","[""McDonald's, 4848, Woodruff Avenue, Lakewood, Los Angeles County, California, 90713, United States""]",90713
679,McDonald's,34.0275718,-118.219226,"1210 S Soto St, Los Angeles","['Soto Street, Boyle Heights, Los Angeles, Los Angeles County, California, 90021-2932, United States']",90021-2932
680,McDonald's,33.9175845,-118.0722865,"12510 Norwalk Blvd, Norwalk","['12510, Norwalk Boulevard, Norwalk, Los Angeles County, California, 90650, United States']",90650
681,McDonald's,34.0364019,-118.0402338,"1185 Durfee Ave, South El Monte","['1185, Durfee Avenue, South El Monte, Los Angeles County, California, 91733, United States']",91733
682,McDonald's,33.8775796,-118.2179828,"1733 Alameda St, Compton","['1733, South Alameda Street, Compton, Los Angeles County, California, 90021, United States']",90021
683,McDonald's,33.9310173,-118.113983,"9475 Firestone Blvd, Downey","['9475, Firestone Boulevard, Downey, Los Angeles County, California, 90241, United States']",90241
684,McDonald's,34.3919893,-118.470845,"19401 Golden Valley Rd, Santa Clarita","['Golden Valley Road, Santa Clarita, Los Angeles County, California, 91351, United States']",91351
685,McDonald's,34.2593325,-118.3063609,"7950 Foothill Blvd, Tujunga","['Foothill Boulevard, Tujunga, Los Angeles, Los Angeles County, California, 91042-2137, United States']",91042-2137
686,McDonald's,34.5587865,-118.0461558,"37217 47th St E, Palmdale","['37217, 47th Street East, Pearland, Palmdale, Los Angeles County, California, 93552, United States']",93552
687,McDonald's,34.496974,-118.623549,"27701 Lake Hughes Rd, Castaic","['27701, Lake Hughes Road, Castaic, Los Angeles County, California, 91384, United States']",91384
688,McDonald's,34.5583557,-118.0853748,"2427 E Ave S, Palmdale","['2427, East Avenue S, Palmdale, Los Angeles County, California, 93550, United States']",93550
689,McDonald's,34.2496909,-118.4670916,"9860 Sepulveda Blvd, North Hills","[""McDonald's, 9860, Sepulveda Boulevard, North HIlls East Neighborhood Council District, North Hills, Los Angeles, Los Angeles County, California, 91345, United States""]",91345
690,McDonald's,34.274472,-118.412148,"11240 Glenoaks Blvd, Pacoima","['11240, Glenoaks Boulevard, Pacoima, Los Angeles, Los Angeles County, California, 91331, United States']",91331
692,McDonald's,34.3035124,-118.477862,"12860 Encinitas Ave, Sylmar","[""McDonald's, 12860, Encinitas Avenue, Los Angeles, Los Angeles County, California, 91312, United States""]",91312
693,McDonald's,34.2568917,-118.5896105,"20932 Devonshire St, Chatsworth","['20932, Devonshire Street, Chatsworth, Los Angeles, Los Angeles County, California, 91311, United States']",91311
694,McDonald's,37.6826359,-121.7781392,"283 N P St, Livermore","['North P Street, Livermore, Alameda County, California, 94551, United States']",94551
695,McDonald's,37.7108074,-121.7236768,"805 N Vasco Rd, Livermore","[""McDonald's, 805, North Vasco Road, Centra, Livermore, Alameda County, California, 94550, United States""]",94550
696,McDonald's,37.69961989999999,-121.7424846,"4528 Las Positas Rd, Livermore","[""McDonald's, 4528, Las Positas Road, The Estate Collection, Livermore, Alameda County, California, 94550, United States""]",94550
697,McDonald's,37.8896692,-121.6206653,"14896 CA-4, Discovery Bay","['14896, CA 4, Discovery Bay, Contra Costa County, California, 94505, United States']",94505
698,McDonald's,37.9878161,-121.2460563,"4419 Waterloo Rd, Stockton","[""McDonald's, 4419, Waterloo Road, Stockton, San Joaquin County, California, 95215, United States""]",95215
699,McDonald's,38.5505945,-121.6973309,"4444 Chiles Rd, Davis","[""McDonald's, 4444, Chiles Road, Davis, Yolo County, California, 95616, United States""]",95616
700,McDonald's,36.2262873,-119.3373473,"768 E Prosperity Ave, Tulare","['768, East Prosperity Avenue, Tulare, Tulare County, California, 93274, United States']",93274
701,McDonald's,36.545798,-119.376571,"1725 E El Monte Way, Dinuba","['East El Monte Way, Dinuba, Tulare County, California, 93618, United States']",93618
702,McDonald's,36.0798981,-119.0472742,"1355 W Henderson Ave, Porterville","['1355, West Henderson Avenue, Porterville, Tulare County, California, 93257, United States']",93257
720,McDonald's,39.320797,-120.208719,"11420 Deerfield Dr, Truckee","['11420, Deerfield Drive, Gateway, Truckee, Nevada County, California, 96161, United States']",96161
723,McDonald's,37.3320082,-119.6550647,"40112 CA-41, Oakhurst","['40112, Southern Yosemite Highway, Oakhurst, Madera County, California, 93644, United States']",93644
724,McDonald's,34.1946457,-118.3492434,"2565 N Hollywood Way, Burbank","['North Hollywood Way, McNeil, Burbank, Los Angeles County, California, 91505, United States']",91505
725,McDonald's,34.1885577,-118.3197517,"1127 N San Fernando Blvd, Burbank","['San Fernando Boulevard, Burbank, Los Angeles County, California, 91502, United States']",91502
726,McDonald's,37.0471688,-122.0325951,"259 Mt Hermon Rd, Scotts Valley","['259, Mount Hermon Road, Scotts Valley, Santa Cruz County, California, 95066, United States']",95066
727,McDonald's,37.1112764,-121.642001,"201 Vineyard Town Ctr, Morgan Hill","['Vineyard Town Center, Morgan Hill, Santa Clara County, California, United States']",California
728,McDonald's,38.7045012,-121.2714598,"7632 Sunrise Blvd, Citrus Heights","['7632, Sunrise Boulevard, Citrus Heights, Sacramento County, California, 95610, United States']",95610
729,McDonald's,36.8085388,-119.8841854,"5222 W Shaw Ave, Fresno","['5222, West Shaw Avenue, Highway City, Fresno, Fresno County, California, 93722, United States']",93722
730,McDonald's,36.7934703,-119.8259975,"4190 N West Ave, Fresno","['4190, North West Avenue, Fresno, Fresno County, California, 93705, United States']",93705
731,McDonald's,36.77942100000001,-119.861733,"3798 W Shields Ave, Fresno","['3798, West Shields Avenue, Fresno, Fresno County, California, 93722, United States']",93722
732,McDonald's,34.0831146,-118.2228148,"2224 N Figueroa St, Los Angeles","['2224, N Figueroa Street, Dayton Avenue, Los Angeles, Los Angeles County, California, 90065, United States']",90065
733,McDonald's,37.5539308,-122.31639,"1420 El Camino Real, San Mateo","[""McDonald's, 1420, El Camino Real, Hayward Park, San Mateo, San Mateo County, California, 94402, United States""]",94402
734,McDonald's,37.4718736,-122.1402374,"2401 University Ave, East Palo Alto","['2401, University Avenue, Ravenswood, East Palo Alto, San Mateo County, California, 94303, United States']",94303
735,McDonald's,37.649021,-122.065915,"26253 Mission Blvd, Hayward","['26253, Mission Boulevard, Sorenson, Hayward, Alameda County, California, 94544, United States']",94544
736,McDonald's,37.5111849,-122.2657667,"180 El Camino Real, San Carlos","[""McDonald's, 180, El Camino Real, San Carlos, San Mateo County, California, 94070, United States""]",94070
737,McDonald's,37.571016,-122.031771,"3990 Decoto Rd, Fremont","[""McDonald's, 3990, Decoto Road, Fremont, Alameda County, California, 94555, United States""]",94555
738,McDonald's,37.5249432,-122.2818365,"522 El Camino Real, Belmont","['El Camino Real, Belmont, San Mateo County, California, 94002, United States']",94002
739,McDonald's,37.6672466,-122.0811819,"23989 Watkins St, Hayward","['23989, Watkins Street, Hayward, Alameda County, California, 94544, United States']",94544
740,McDonald's,37.5395549,-121.9231343,"42800 Mission Blvd, Fremont","['42800, Mission Boulevard, Mission San Jose District, Fremont, Alameda County, California, 94539, United States']",94539
741,McDonald's,37.4574055,-121.9109749,"1854 N Milpitas Blvd, Milpitas","[""McDonald's, 1854, North Milpitas Boulevard, Milpitas, Santa Clara County, California, 95035, United States""]",95035
742,McDonald's,37.5495472,-122.0464486,"35192 Newark Blvd, Newark","['35192 Newark Boulevard, Newark Boulevard, Newark, Alameda County, California, 94555, United States']",94555
747,McDonald's,34.8393924,-114.6100643,"1201 3rd St, Needles","['1201, 3rd Street, Needles, San Bernardino County, California, 92363, United States']",92363
752,McDonald's,33.6432415,-117.5957385,"30672 Santa Margarita Pkwy, Rancho Santa Margarita","[""McDonald's, 30672, Santa Margarita Parkway, Rancho Santa Margarita, Orange County, California, 92688, United States""]",92688
753,McDonald's,33.627787,-117.7162273,"23742 Rockfield Blvd, Lake Forest","[""McDonald's, 23742, Rockfield Boulevard, Lake Forest, Orange County, California, 92630, United States""]",92630
754,McDonald's,34.1471877,-118.7601806,"29161 Canwood St, Agoura Hills","[""McDonald's, 29161, Canwood Street, Malibu Junction, Agoura Hills, Los Angeles County, California, 91301, United States""]",91301
755,McDonald's,34.2005512,-118.8678512,"1730 N Moorpark Rd, Thousand Oaks","['1730, North Moorpark Road, Thousand Oaks, Ventura County, California, 91360, United States']",91360
756,McDonald's,34.272273,-118.770419,"1495 E Los Angeles Ave, Simi Valley","['1495, East Los Angeles Avenue, Simi Valley, Ventura County, California, 93063, United States']",93063
757,McDonald's,34.2824963,-118.6798337,"2605 Yosemite Ave, Simi Valley","['2605, Yosemite Avenue, Montaire, Simi Valley, Ventura County, California, 93063, United States']",93063
758,McDonald's,33.9945237,-117.0573078,"1199 Calimesa Blvd, Calimesa","['1199, Calimesa Boulevard, Calimesa, Riverside County, California, 92320, United States']",92320
759,McDonald's,34.0343848,-117.0712352,"33590 Yucaipa Blvd, Yucaipa","['33590, Yucaipa Boulevard, Yucaipa, San Bernardino County, California, 92399, United States']",92399
760,McDonald's,34.1826403,-118.1600987,"2157 Lincoln Ave, Altadena","['Lincoln Avenue, Altadena, Los Angeles County, California, 91109, United States']",91109
761,McDonald's,34.1862303,-118.3708552,"11000 Victory Blvd, North Hollywood","['Victory Boulevard, North Hollywood, Los Angeles, Los Angeles County, California, 91601, United States']",91601
762,McDonald's,34.186434,-118.45709,"14850 Victory Blvd, Van Nuys","['14850, Victory Boulevard, Van Nuys, Los Angeles, Los Angeles County, California, 91411, United States']",91411
763,McDonald's,34.2007886,-118.4315845,"13700 Sherman Way, Van Nuys","['13700, Sherman Way, Van Nuys, Los Angeles, Los Angeles County, California, 91405, United States']",91405
764,McDonald's,38.6150933,-121.2699142,"2400 Sunrise Blvd, Rancho Cordova","['2400, Sunrise Boulevard, Rancho Cordova, Sacramento County, California, 95670, United States']",95670
765,McDonald's,38.52460629999999,-121.4098091,"8020 Fruitridge Rd, Sacramento","['8020, Fruitridge Road, Sacramento, Sacramento County, California, 95820, United States']",95820
766,McDonald's,36.0648502,-119.0086169,"379 E Olive Ave, Porterville","['379, East Olive Avenue, Porterville, Tulare County, California, 93257, United States']",93257
767,McDonald's,36.2029516,-119.1030642,"208 CA-65, Lindsay","['208, CA 65, Lindsay, Tulare County, California, 93247, United States']",93247
768,McDonald's,36.297668,-119.156229,"1109 W Visalia Rd, Exeter","['West Visalia Road, Exeter, Tulare County, California, 93221, United States']",93221
769,McDonald's,38.4737856,-121.4286002,"6370 Mack Rd, Sacramento","['6370, Mack Road, Sacramento, Elk Grove, Sacramento County, California, 95823, United States']",95823
771,McDonald's,34.0536765,-117.9740614,"13847 Amar Rd, La Puente","['Amar Road, La Puente, Los Angeles County, California, 91744, United States']",91744
772,McDonald's,35.6242233,-117.6692766,"150 N China Lake Blvd, Ridgecrest","['150, North China Lake Boulevard, Ridgecrest, Kern County, California, 93555, United States']",93555
773,McDonald's,37.7062031,-121.9243333,"7145 Dublin Blvd, Dublin","[""McDonald's, 7145, Dublin Boulevard, Dublin, Alameda County, California, 94588, United States""]",94588
774,McDonald's,34.1990708,-119.1954337,"401 Ventura Ave, Oxnard","['Oxnard Full Gospel Church, South Roosevelt Avenue, Oxnard, Ventura County, California, 93031, United States']",93031
775,McDonald's,37.4126653,-121.8977514,"1249 Great Mall Dr, Milpitas","['Chevron, 1249, Great Mall Drive, Great Mall, Milpitas, Santa Clara County, California, 95035, United States']",95035
776,McDonald's,37.3872927,-121.8605802,"1142 N Capitol Ave, San Jose","[""McDonald's, 1142, North Capitol Avenue, Berryessa, San Jose, Santa Clara County, California, 95132, United States""]",95132
777,McDonald's,34.2358961,-118.5365085,"9101 Reseda Blvd, Northridge","['9101, Reseda Boulevard, Northridge, Los Angeles, Los Angeles County, California, 91324, United States']",91324
779,McDonald's,34.2006324,-118.6105703,"22200 Sherman Way, Canoga Park","['22200, Sherman Way, Canoga Park, Los Angeles, Los Angeles County, California, 91303, United States']",91303
780,McDonald's,38.1067106,-122.5699261,"7340 Redwood Hwy, Novato","['Redwood Highway, Novato, Marin County, California, 94945, United States']",94945
781,McDonald's,37.4676047,-122.2236512,"709 Woodside Rd, Redwood City","['709, Woodside Road, Redwood City, San Mateo County, California, 94061, United States']",94061
782,McDonald's,37.479261,-122.224261,"185 Chestnut St, Redwood City","[""McDonald's, 185, Chestnut Street, Redwood Junction, Redwood City, San Mateo County, California, 94063, United States""]",94063
783,McDonald's,38.91243,-120.003284,"1035 Emerald Bay Rd, South Lake Tahoe","['Emerald Bay Road, Tahoe Valley, South Lake Tahoe, El Dorado County, California, 96158, United States']",96158
784,McDonald's,38.9499528,-119.9551604,"3715 Lake Tahoe Blvd, South Lake Tahoe","['Lake Tahoe Boulevard, Tahoe Valley, South Lake Tahoe, El Dorado County, California, 96158, United States']",96158
789,McDonald's,37.6698207,-121.8582467,"3001 Bernal Ave, Pleasanton","[""McDonald's, 3001, Bernal Avenue, Pleasanton, Alameda County, California, 94566, United States""]",94566
790,McDonald's,40.4052543,-120.6330474,"3000 Main St, Susanville","['Main Street, Susanville, Lassen County, California, 96130, United States']",96130
791,McDonald's,35.3547102,-118.9147684,"356 Weedpatch Hwy, Bakersfield","[""McDonald's, 356, Weedpatch Highway, City of Bakersfield, Kern County, California, 93307, United States""]",93307
792,McDonald's,35.397215,-118.96719,"2699 Mount Vernon Ave, Bakersfield","['2699, Mount Vernon Avenue, Bakersfield, Kern County, California, 93306, United States']",93306
794,McDonald's,34.7939621,-118.8524701,"49714 Gorman School Rd, Gorman","[""McDonald's, 49714, Gorman School Road, Gorman, Los Angeles County, California, 93243, United States""]",93243
795,McDonald's,33.8799378,-117.6145126,"808 Serfas Club Dr, Corona","[""McDonald's, 808, Serfas Club Drive, Coronita, Corona, Riverside County, California, 92882, United States""]",92882
796,McDonald's,33.8976546,-117.5618729,"150 Hidden Valley Pkwy, Norco","['150, Hidden Valley Parkway, Norco, Riverside County, California, 92860, United States']",92860
798,McDonald's,37.6962296,-121.9288156,"1004 Stoneridge Mall Rd, Pleasanton","[""McDonald's, 1004, Stoneridge Mall Road, Pleasanton, Alameda County, California, 94588, United States""]",94588
799,McDonald's,37.7006383,-121.8714472,"6800 Santa Rita Rd, Pleasanton","[""McDonald's, 6800, Santa Rita Road, Pleasanton, Alameda County, California, 9458811, United States""]",9458811
800,McDonald's,37.5493387,-121.9891071,"38860 Fremont Blvd, Fremont","['38860, Fremont Boulevard, Centerville District, Fremont, Alameda County, California, 94536, United States']",94536
801,McDonald's,34.08817,-117.749867,"2200 N Garey Ave, Pomona","['2200, North Garey Avenue, North Pomona, Pomona, Los Angeles County, California, 91767, United States']",91767
802,McDonald's,34.10620610000001,-117.5948169,"9649 Foothill Blvd, Rancho Cucamonga","['9649, Foothill Boulevard, Rancho Cucamonga, San Bernardino County, California, 91730, United States']",91730
803,McDonald's,34.0878597,-117.6892412,"9141 Central Ave, Montclair","['9141, Central Avenue, Montclair, San Bernardino County, California, 91763, United States']",91763
804,McDonald's,34.084306,-117.967859,"14008 Ramona Blvd, Baldwin Park","['14008, Ramona Boulevard, Baldwin Park, Los Angeles County, California, 91706, United States']",91706
805,McDonald's,37.3159663,-121.7937516,"3221 S White Rd, San Jose","['McDonalds, 3221, South White Road, Evergreen, San Jose, Santa Clara County, California, 95148, United States']",95148
806,McDonald's,37.3109448,-121.9313806,"898 S Bascom Ave, San Jose","['898, South Bascom Avenue, Buena Vista, San Jose, Santa Clara County, California, 95128, United States']",95128
807,McDonald's,33.8012447,-118.3275658,"24650 Crenshaw Blvd, Torrance","['24650, Crenshaw Boulevard, Torrance, Los Angeles County, California, 90505, United States']",90505
808,McDonald's,36.711786,-119.557558,"295 Academy Ave, Sanger","['295, Academy Avenue, Sanger, Fresno County, California, 93657, United States']",93657
